{"type":"FeatureCollection", "features": [
{"type":"Feature","geometry":{"type":"Polygon","coordinates":[[[9.2443,48.8468],[9.2312,48.8634],[9.2076,48.8527],[9.1674,48.8517],[9.1413,48.8629],[9.1325,48.8416],[9.138,48.828],[9.1149,48.8223],[9.0856,48.8339],[9.0879,48.7825],[9.076,48.7537],[9.0669,48.7559],[9.0566,48.7334],[9.078,48.7243],[9.0858,48.7124],[9.1036,48.7081],[9.1679,48.7031],[9.1979,48.6899],[9.2454,48.6934],[9.2126,48.7265],[9.2501,48.7405],[9.2754,48.7575],[9.2734,48.7671],[9.3142,48.7751],[9.2904,48.7914],[9.2588,48.795],[9.2572,48.8098],[9.2399,48.8282],[9.2443,48.8468]]]},"properties":{"ags":"08111","name":"Stuttgart","typ":"Stadtkreis"}},
{"type":"Feature","geometry":{"type":"Polygon","coordinates":[[[9.0669,48.7559],[9.0527,48.7616],[9.0422,48.7935],[9.029,48.8004],[9.0468,48.8148],[9.0365,48.8258],[8.9794,48.8306],[8.9573,48.8415],[8.9582,48.8555],[8.9291,48.8667],[8.9063,48.8622],[8.8958,48.8472],[8.874,48.8373],[8.8948,48.8207],[8.8921,48.804],[8.8679,48.7924],[8.8423,48.7992],[8.8043,48.7781],[8.8352,48.7538],[8.8296,48.7368],[8.8545,48.7345],[8.8751,48.7262],[8.863,48.6973],[8.8364,48.683],[8.8189,48.6642],[8.7992,48.6582],[8.7903,48.6377],[8.801,48.61],[8.7929,48.5958],[8.7604,48.604],[8.7551,48.5858],[8.7581,48.5305],[8.7706,48.5226],[8.7901,48.5198],[8.7995,48.509],[8.8435,48.5079],[8.8601,48.5261],[8.8515,48.5373],[8.8872,48.5423],[8.8865,48.5557],[8.9128,48.5717],[8.9356,48.5765],[8.9507,48.5883],[8.9792,48.5915],[9.0073,48.5885],[9.0351,48.5779],[9.0531,48.5939],[9.0889,48.6033],[9.0956,48.6216],[9.1322,48.6018],[9.1498,48.604],[9.1436,48.618],[9.1723,48.6333],[9.166,48.6449],[9.1262,48.6761],[9.1045,48.6777],[9.1036,48.7081],[9.0858,48.7124],[9.078,48.7243],[9.0566,48.7334],[9.0669,48.7559]]]},"properties":{"ags":"08115","name":"Böblingen","typ":"Landkreis"}},
{"type":"Feature","geometry":{"type":"Polygon","coordinates":[[[9.1036,48.7081],[9.1045,48.6777],[9.1262,48.6761],[9.166,48.6449],[9.1723,48.6333],[9.1436,48.618],[9.1498,48.604],[9.2029,48.6032],[9.2074,48.5723],[9.2241,48.566],[9.2371,48.5753],[9.2578,48.5662],[9.2954,48.5655],[9.3016,48.578],[9.3223,48.569],[9.3235,48.5412],[9.34,48.5485],[9.3698,48.5338],[9.4184,48.5358],[9.4506,48.5465],[9.4868,48.5327],[9.4778,48.518],[9.5055,48.5147],[9.5111,48.5232],[9.5501,48.5284],[9.583,48.5389],[9.5606,48.5519],[9.5964,48.5909],[9.5958,48.61],[9.5766,48.6248],[9.5384,48.6278],[9.5561,48.6403],[9.5547,48.654],[9.5407,48.6606],[9.5101,48.6565],[9.4946,48.6697],[9.4882,48.6947],[9.4935,48.7124],[9.4871,48.7272],[9.5032,48.7531],[9.4844,48.7652],[9.4458,48.7774],[9.4197,48.763],[9.407,48.7781],[9.3665,48.7692],[9.3207,48.769],[9.3142,48.7751],[9.2734,48.7671],[9.2754,48.7575],[9.2501,48.7405],[9.2126,48.7265],[9.2454,48.6934],[9.1979,48.6899],[9.1679,48.7031],[9.1036,48.7081]]]},"properties":{"ags":"08116","name":"Esslingen","typ":"Landkreis"}},
{"type":"Feature","geometry":{"type":"Polygon","coordinates":[[[9.583,48.5389],[9.5858,48.5369],[9.6111,48.5411],[9.6323,48.537],[9.6536,48.521],[9.6775,48.5225],[9.6954,48.5401],[9.7188,48.5448],[9.7179,48.5573],[9.7513,48.5636],[9.811,48.5569],[9.8263,48.5641],[9.8403,48.5858],[9.8713,48.5898],[9.8822,48.604],[9.9242,48.6298],[9.9431,48.6319],[9.9208,48.6484],[9.9321,48.6669],[9.946,48.663],[9.9696,48.6726],[9.9629,48.6978],[9.9921,48.7052],[9.9877,48.7274],[9.9331,48.7298],[9.9318,48.7411],[9.8819,48.7512],[9.8965,48.7329],[9.884,48.7147],[9.8378,48.7297],[9.7925,48.721],[9.7815,48.7453],[9.7521,48.7516],[9.7326,48.7682],[9.7037,48.7788],[9.6601,48.771],[9.6262,48.7743],[9.6145,48.7701],[9.5866,48.7812],[9.5699,48.7722],[9.5858,48.7603],[9.5475,48.7403],[9.5339,48.7568],[9.5164,48.7619],[9.5032,48.7531],[9.4871,48.7272],[9.4935,48.7124],[9.4882,48.6947],[9.4946,48.6697],[9.5101,48.6565],[9.5407,48.6606],[9.5547,48.654],[9.5561,48.6403],[9.5384,48.6278],[9.5766,48.6248],[9.5958,48.61],[9.5964,48.5909],[9.5606,48.5519],[9.583,48.5389]]]},"properties":{"ags":"08117","name":"Göppingen","typ":"Landkreis"}},
{"type":"Feature","geometry":{"type":"MultiPolygon","coordinates":[[[[9.2443,48.8468],[9.2538,48.8604],[9.2934,48.864],[9.2967,48.8857],[9.3152,48.9038],[9.363,48.9114],[9.3618,48.9228],[9.3195,48.932],[9.3041,48.9518],[9.3308,48.9513],[9.3509,48.966],[9.3717,48.9733],[9.3474,48.9943],[9.3254,48.9973],[9.382,49.0259],[9.3997,49.0383],[9.3577,49.0375],[9.3343,49.0413],[9.3138,49.034],[9.277,49.036],[9.2373,49.0206],[9.2135,49.0285],[9.1859,49.0305],[9.1754,49.0512],[9.1274,49.0627],[9.107,49.0514],[9.064,49.0452],[9.0625,49.0252],[9.0132,49.021],[8.9875,49.0274],[8.9755,49.0414],[8.9419,49.0377],[8.8863,49.0448],[8.8757,49.0372],[8.9041,49.0216],[8.9315,48.9949],[8.9208,48.9826],[8.9462,48.9584],[8.9408,48.9387],[8.9041,48.942],[8.9178,48.8833],[8.9291,48.8667],[8.9582,48.8555],[8.9573,48.8415],[8.9794,48.8306],[9.0365,48.8258],[9.0468,48.8148],[9.029,48.8004],[9.0422,48.7935],[9.0527,48.7616],[9.0669,48.7559],[9.076,48.7537],[9.0879,48.7825],[9.0856,48.8339],[9.1149,48.8223],[9.138,48.828],[9.1325,48.8416],[9.1413,48.8629],[9.1674,48.8517],[9.2076,48.8527],[9.2312,48.8634],[9.2443,48.8468]]],[[[9.4168,49.0479],[9.4106,49.0636],[9.3824,49.0538],[9.3997,49.0441],[9.4168,49.0479]]]]},"properties":{"ags":"08118","name":"Ludwigsburg","typ":"Landkreis"}},
{"type":"Feature","geometry":{"type":"Polygon","coordinates":[[[9.3142,48.7751],[9.3207,48.769],[9.3665,48.7692],[9.407,48.7781],[9.4197,48.763],[9.4458,48.7774],[9.4844,48.7652],[9.5032,48.7531],[9.5164,48.7619],[9.5339,48.7568],[9.5475,48.7403],[9.5858,48.7603],[9.5699,48.7722],[9.5866,48.7812],[9.6145,48.7701],[9.6262,48.7743],[9.6194,48.7885],[9.6447,48.7978],[9.6576,48.8247],[9.7105,48.8283],[9.7282,48.8166],[9.7689,48.8346],[9.7634,48.8542],[9.7505,48.8626],[9.7496,48.8868],[9.7407,48.9028],[9.7032,48.9112],[9.6857,48.9264],[9.6778,48.9444],[9.6936,48.9641],[9.6679,48.9772],[9.633,49.0045],[9.6,49.0039],[9.6122,49.0239],[9.6116,49.0368],[9.5961,49.0456],[9.5332,49.0588],[9.501,49.0774],[9.4557,49.0736],[9.4402,49.0655],[9.4417,49.0523],[9.4168,49.0479],[9.3997,49.0441],[9.3997,49.0383],[9.382,49.0259],[9.3254,48.9973],[9.3474,48.9943],[9.3717,48.9733],[9.3509,48.966],[9.3308,48.9513],[9.3041,48.9518],[9.3195,48.932],[9.3618,48.9228],[9.363,48.9114],[9.3152,48.9038],[9.2967,48.8857],[9.2934,48.864],[9.2538,48.8604],[9.2443,48.8468],[9.2399,48.8282],[9.2572,48.8098],[9.2588,48.795],[9.2904,48.7914],[9.3142,48.7751]]]},"properties":{"ags":"08119","name":"Rems-Murr-Kreis","typ":"Landkreis"}},
{"type":"Feature","geometry":{"type":"Polygon","coordinates":[[[9.127,49.2091],[9.1038,49.1977],[9.0603,49.1989],[9.0576,49.1923],[9.0914,49.1703],[9.1289,49.1707],[9.1332,49.1572],[9.1591,49.143],[9.1322,49.1246],[9.1527,49.1102],[9.1521,49.1],[9.176,49.0942],[9.2036,49.1128],[9.2518,49.1036],[9.2777,49.1202],[9.2792,49.1328],[9.2571,49.1635],[9.2195,49.1719],[9.2122,49.188],[9.1646,49.1925],[9.1635,49.2036],[9.127,49.2091]]]},"properties":{"ags":"08121","name":"Heilbronn","typ":"Stadtkreis"}},
{"type":"Feature","geometry":{"type":"Polygon","coordinates":[[[9.4168,49.0479],[9.4417,49.0523],[9.4402,49.0655],[9.4557,49.0736],[9.501,49.0774],[9.5026,49.103],[9.5272,49.1081],[9.5143,49.1149],[9.507,49.1335],[9.4785,49.1092],[9.4336,49.0986],[9.4385,49.1155],[9.4226,49.1384],[9.3861,49.149],[9.3663,49.1775],[9.3718,49.1923],[9.3892,49.1981],[9.4117,49.1934],[9.4426,49.2176],[9.4258,49.2262],[9.415,49.2462],[9.4315,49.2829],[9.4444,49.2832],[9.4767,49.2987],[9.5153,49.3035],[9.4732,49.3218],[9.4654,49.3547],[9.4439,49.3643],[9.4248,49.3579],[9.398,49.3654],[9.3615,49.366],[9.3379,49.3848],[9.3094,49.3749],[9.3154,49.3572],[9.2948,49.3475],[9.2875,49.3296],[9.2695,49.3304],[9.2582,49.3033],[9.21,49.3159],[9.1927,49.3275],[9.1597,49.3234],[9.1481,49.274],[9.1182,49.2719],[9.1082,49.2794],[9.0687,49.2789],[9.049,49.293],[9.0318,49.2695],[8.9968,49.2531],[9.0057,49.2416],[8.9663,49.2283],[8.9574,49.2133],[8.8868,49.2024],[8.8963,49.182],[8.8639,49.1744],[8.8207,49.1942],[8.8241,49.1799],[8.8177,49.1578],[8.8353,49.1548],[8.8283,49.1253],[8.8587,49.1262],[8.8898,49.1153],[8.893,49.0825],[8.8764,49.0696],[8.878,49.0581],[8.8757,49.0372],[8.8863,49.0448],[8.9419,49.0377],[8.9755,49.0414],[8.9875,49.0274],[9.0132,49.021],[9.0625,49.0252],[9.064,49.0452],[9.107,49.0514],[9.1274,49.0627],[9.1754,49.0512],[9.1859,49.0305],[9.2135,49.0285],[9.2373,49.0206],[9.277,49.036],[9.3138,49.034],[9.3343,49.0413],[9.3577,49.0375],[9.3997,49.0383],[9.3997,49.0441],[9.3824,49.0538],[9.4106,49.0636],[9.4168,49.0479]],[[9.127,49.2091],[9.1635,49.2036],[9.1646,49.1925],[9.2122,49.188],[9.2195,49.1719],[9.2571,49.1635],[9.2792,49.1328],[9.2777,49.1202],[9.2518,49.1036],[9.2036,49.1128],[9.176,49.0942],[9.1521,49.1],[9.1527,49.1102],[9.1322,49.1246],[9.1591,49.143],[9.1332,49.1572],[9.1289,49.1707],[9.0914,49.1703],[9.0576,49.1923],[9.0603,49.1989],[9.1038,49.1977],[9.127,49.2091]]]},"properties":{"ags":"08125","name":"Heilbronn","typ":"Landkreis"}},
{"type":"Feature","geometry":{"type":"Polygon","coordinates":[[[9.5272,49.1081],[9.546,49.1325],[9.5801,49.134],[9.6008,49.1415],[9.651,49.1337],[9.6728,49.1492],[9.6736,49.1617],[9.6908,49.1669],[9.6973,49.1904],[9.7168,49.1955],[9.7454,49.1948],[9.7651,49.2245],[9.7637,49.2432],[9.7881,49.2553],[9.8259,49.2646],[9.8371,49.2864],[9.855,49.2866],[9.8583,49.3278],[9.8431,49.3461],[9.8563,49.3537],[9.8558,49.3681],[9.829,49.3941],[9.8117,49.3883],[9.7926,49.4076],[9.7481,49.3943],[9.7107,49.3987],[9.7096,49.4152],[9.6874,49.4097],[9.6714,49.4149],[9.6399,49.4136],[9.6387,49.4297],[9.6037,49.4267],[9.5706,49.4162],[9.5927,49.3913],[9.5673,49.3753],[9.5312,49.3816],[9.5065,49.376],[9.4756,49.3855],[9.4645,49.3962],[9.4463,49.3909],[9.4439,49.3643],[9.4654,49.3547],[9.4732,49.3218],[9.5153,49.3035],[9.4767,49.2987],[9.4444,49.2832],[9.4315,49.2829],[9.415,49.2462],[9.4258,49.2262],[9.4426,49.2176],[9.4117,49.1934],[9.3892,49.1981],[9.3718,49.1923],[9.3663,49.1775],[9.3861,49.149],[9.4226,49.1384],[9.4385,49.1155],[9.4336,49.0986],[9.4785,49.1092],[9.507,49.1335],[9.5143,49.1149],[9.5272,49.1081]]]},"properties":{"ags":"08126","name":"Hohenlohekreis","typ":"Landkreis"}},
{"type":"Feature","geometry":{"type":"Polygon","coordinates":[[[9.6936,48.9641],[9.7155,48.9639],[9.7337,48.9715],[9.7478,48.9569],[9.779,48.952],[9.7966,48.944],[9.8451,48.9346],[9.8346,48.918],[9.8742,48.9174],[9.9009,48.943],[9.8937,48.9535],[9.9183,48.9678],[9.9788,48.9804],[9.9975,48.9928],[9.9747,49.0399],[10.0201,49.0523],[10.0511,49.043],[10.0862,49.0476],[10.1173,49.0378],[10.1691,49.0592],[10.1979,49.0408],[10.2401,49.0568],[10.257,49.0593],[10.2455,49.0743],[10.2505,49.0922],[10.2271,49.0903],[10.2049,49.098],[10.2349,49.1221],[10.2553,49.1316],[10.2482,49.1486],[10.2132,49.1627],[10.2038,49.1555],[10.179,49.1823],[10.1367,49.199],[10.1392,49.2162],[10.1274,49.2233],[10.1169,49.2585],[10.1488,49.2694],[10.1321,49.3053],[10.1455,49.3162],[10.1204,49.3253],[10.1029,49.3443],[10.1177,49.3672],[10.1119,49.3847],[10.1063,49.3947],[10.0676,49.3926],[10.032,49.3843],[10.0415,49.3698],[10,49.3712],[9.9737,49.376],[9.9593,49.3596],[9.9344,49.3516],[9.9234,49.3742],[9.9001,49.3671],[9.8778,49.3743],[9.8558,49.3681],[9.8563,49.3537],[9.8431,49.3461],[9.8583,49.3278],[9.855,49.2866],[9.8371,49.2864],[9.8259,49.2646],[9.7881,49.2553],[9.7637,49.2432],[9.7651,49.2245],[9.7454,49.1948],[9.7168,49.1955],[9.6973,49.1904],[9.6908,49.1669],[9.6736,49.1617],[9.6728,49.1492],[9.651,49.1337],[9.6008,49.1415],[9.5801,49.134],[9.546,49.1325],[9.5272,49.1081],[9.5026,49.103],[9.501,49.0774],[9.5332,49.0588],[9.5961,49.0456],[9.6116,49.0368],[9.6122,49.0239],[9.6,49.0039],[9.633,49.0045],[9.6679,48.9772],[9.6936,48.9641]]]},"properties":{"ags":"08127","name":"Schwäbisch Hall","typ":"Landkreis"}},
{"type":"Feature","geometry":{"type":"Polygon","coordinates":[[[9.8558,49.3681],[9.8778,49.3743],[9.9001,49.3671],[9.9234,49.3742],[9.9344,49.3516],[9.9593,49.3596],[9.9737,49.376],[10,49.3712],[10.0415,49.3698],[10.032,49.3843],[10.0676,49.3926],[10.1063,49.3947],[10.1119,49.3847],[10.1446,49.3837],[10.1615,49.395],[10.1489,49.4034],[10.1329,49.4371],[10.0946,49.4466],[10.1165,49.4615],[10.1183,49.472],[10.1012,49.4856],[10.1172,49.5032],[10.1061,49.5152],[10.084,49.5121],[10.0787,49.5272],[10.0837,49.5433],[10.0376,49.5292],[10.0576,49.5166],[10.0293,49.5037],[10.0105,49.4835],[9.9724,49.4858],[9.9551,49.481],[9.9298,49.4842],[9.9136,49.493],[9.9249,49.5087],[9.9173,49.5166],[9.9261,49.5357],[9.9198,49.5626],[9.8993,49.5859],[9.8752,49.5782],[9.8647,49.5675],[9.8591,49.5463],[9.8093,49.5569],[9.8484,49.5775],[9.8418,49.5948],[9.8671,49.6121],[9.8543,49.6434],[9.8342,49.6469],[9.8223,49.6664],[9.8325,49.6807],[9.8314,49.7031],[9.7976,49.72],[9.7781,49.7222],[9.7528,49.7102],[9.7498,49.6955],[9.7356,49.6875],[9.6992,49.7191],[9.6777,49.7165],[9.6753,49.6934],[9.6529,49.6874],[9.6256,49.7031],[9.6411,49.7229],[9.6361,49.7323],[9.6508,49.7662],[9.6482,49.7914],[9.6206,49.7835],[9.5589,49.7775],[9.5581,49.7648],[9.5231,49.7603],[9.5129,49.7814],[9.4809,49.7865],[9.4616,49.7695],[9.4459,49.7725],[9.4239,49.7888],[9.3925,49.7698],[9.3714,49.7781],[9.343,49.7674],[9.3205,49.7686],[9.3142,49.7588],[9.3518,49.7219],[9.3527,49.7072],[9.3828,49.7093],[9.3813,49.726],[9.4184,49.7117],[9.4178,49.6875],[9.3978,49.6711],[9.4115,49.6621],[9.4555,49.6475],[9.5025,49.6375],[9.5192,49.6439],[9.5497,49.6311],[9.5307,49.5972],[9.5113,49.6021],[9.4994,49.5874],[9.5222,49.5366],[9.5449,49.5294],[9.535,49.5177],[9.4951,49.5024],[9.4921,49.4864],[9.517,49.4726],[9.5059,49.4539],[9.5311,49.4433],[9.5424,49.4497],[9.5898,49.4399],[9.6037,49.4267],[9.6387,49.4297],[9.6399,49.4136],[9.6714,49.4149],[9.6874,49.4097],[9.7096,49.4152],[9.7107,49.3987],[9.7481,49.3943],[9.7926,49.4076],[9.8117,49.3883],[9.829,49.3941],[9.8558,49.3681]]]},"properties":{"ags":"08128","name":"Main-Tauber-Kreis","typ":"Landkreis"}},
{"type":"Feature","geometry":{"type":"Polygon","coordinates":[[[9.9431,48.6319],[9.9692,48.6154],[9.9643,48.5947],[10.0399,48.6064],[10.0516,48.5924],[10.0972,48.5783],[10.1236,48.5591],[10.1941,48.5459],[10.2307,48.5103],[10.2542,48.5186],[10.2762,48.516],[10.3121,48.523],[10.302,48.5442],[10.3147,48.5557],[10.3104,48.5767],[10.2939,48.5901],[10.2968,48.604],[10.3227,48.609],[10.2688,48.6472],[10.2542,48.6648],[10.2729,48.6858],[10.2774,48.7017],[10.304,48.6858],[10.3348,48.6898],[10.3475,48.6774],[10.3522,48.6543],[10.3895,48.6676],[10.3927,48.6885],[10.4078,48.6983],[10.4265,48.6739],[10.4498,48.6661],[10.4814,48.6814],[10.487,48.6968],[10.4641,48.7278],[10.4241,48.7446],[10.3694,48.7388],[10.3574,48.7288],[10.3111,48.7397],[10.2881,48.7544],[10.2271,48.7719],[10.221,48.783],[10.18,48.7767],[10.1702,48.7542],[10.1403,48.7742],[10.1156,48.7595],[10.0824,48.7554],[10.0565,48.7464],[10.0383,48.7645],[10.0238,48.7652],[10.0114,48.7522],[10.0162,48.7332],[9.9877,48.7274],[9.9921,48.7052],[9.9629,48.6978],[9.9696,48.6726],[9.946,48.663],[9.9321,48.6669],[9.9208,48.6484],[9.9431,48.6319]]]},"properties":{"ags":"08135","name":"Heidenheim","typ":"Landkreis"}},
{"type":"Feature","geometry":{"type":"Polygon","coordinates":[[[9.9877,48.7274],[10.0162,48.7332],[10.0114,48.7522],[10.0238,48.7652],[10.0383,48.7645],[10.0565,48.7464],[10.0824,48.7554],[10.1156,48.7595],[10.1403,48.7742],[10.1702,48.7542],[10.18,48.7767],[10.221,48.783],[10.2271,48.7719],[10.2881,48.7544],[10.3111,48.7397],[10.3574,48.7288],[10.3694,48.7388],[10.4241,48.7446],[10.4273,48.7552],[10.4134,48.7706],[10.4336,48.776],[10.4241,48.8008],[10.4481,48.8131],[10.4486,48.8302],[10.4272,48.8422],[10.4491,48.8492],[10.4539,48.892],[10.4235,48.9032],[10.457,48.9168],[10.4434,48.9454],[10.4301,48.9477],[10.4105,48.9772],[10.3818,48.9992],[10.3543,49.0047],[10.3491,49.0279],[10.3213,49.0264],[10.2968,49.0419],[10.2547,49.0456],[10.257,49.0593],[10.2401,49.0568],[10.1979,49.0408],[10.1691,49.0592],[10.1173,49.0378],[10.0862,49.0476],[10.0511,49.043],[10.0201,49.0523],[9.9747,49.0399],[9.9975,48.9928],[9.9788,48.9804],[9.9183,48.9678],[9.8937,48.9535],[9.9009,48.943],[9.8742,48.9174],[9.8346,48.918],[9.8451,48.9346],[9.7966,48.944],[9.779,48.952],[9.7478,48.9569],[9.7337,48.9715],[9.7155,48.9639],[9.6936,48.9641],[9.6778,48.9444],[9.6857,48.9264],[9.7032,48.9112],[9.7407,48.9028],[9.7496,48.8868],[9.7505,48.8626],[9.7634,48.8542],[9.7689,48.8346],[9.7282,48.8166],[9.7105,48.8283],[9.6576,48.8247],[9.6447,48.7978],[9.6194,48.7885],[9.6262,48.7743],[9.6601,48.771],[9.7037,48.7788],[9.7326,48.7682],[9.7521,48.7516],[9.7815,48.7453],[9.7925,48.721],[9.8378,48.7297],[9.884,48.7147],[9.8965,48.7329],[9.8819,48.7512],[9.9318,48.7411],[9.9331,48.7298],[9.9877,48.7274]]]},"properties":{"ags":"08136","name":"Ostalbkreis","typ":"Landkreis"}},
{"type":"Feature","geometry":{"type":"Polygon","coordinates":[[[8.1703,48.8414],[8.1902,48.8335],[8.1666,48.819],[8.1633,48.8015],[8.1454,48.7894],[8.1671,48.7838],[8.2008,48.7618],[8.2003,48.7517],[8.1738,48.7415],[8.1428,48.7411],[8.1336,48.7189],[8.1465,48.7154],[8.1924,48.7159],[8.2236,48.6929],[8.2373,48.6674],[8.2749,48.6693],[8.299,48.6854],[8.2965,48.6932],[8.3197,48.7058],[8.3206,48.7304],[8.3145,48.7407],[8.2858,48.7558],[8.2899,48.7749],[8.2688,48.7977],[8.2116,48.8307],[8.1703,48.8414]]]},"properties":{"ags":"08211","name":"Baden-Baden","typ":"Stadtkreis"}},
{"type":"Feature","geometry":{"type":"Polygon","coordinates":[[[8.2779,48.9892],[8.3126,48.9834],[8.3302,48.9922],[8.3708,48.9719],[8.3878,48.9583],[8.4166,48.96],[8.4427,48.9694],[8.4443,48.9554],[8.4681,48.9404],[8.5111,48.9427],[8.5381,48.9523],[8.5389,48.9537],[8.509,48.9684],[8.5005,48.9934],[8.5214,49.0151],[8.5209,49.0293],[8.4809,49.0544],[8.4607,49.0431],[8.4272,49.0718],[8.4101,49.064],[8.3921,49.0691],[8.3478,49.072],[8.3405,49.0799],[8.3089,49.048],[8.2992,49.0156],[8.2779,48.9892]]]},"properties":{"ags":"08212","name":"Karlsruhe","typ":"Stadtkreis"}},
{"type":"Feature","geometry":{"type":"MultiPolygon","coordinates":[[[[8.467,49.2824],[8.4165,49.2507],[8.3877,49.2297],[8.405,49.2193],[8.3855,49.1983],[8.3684,49.1675],[8.3727,49.1519],[8.3611,49.1044],[8.3405,49.0799],[8.3478,49.072],[8.3921,49.0691],[8.4101,49.064],[8.4272,49.0718],[8.4607,49.0431],[8.4809,49.0544],[8.5209,49.0293],[8.5214,49.0151],[8.5005,48.9934],[8.509,48.9684],[8.5389,48.9537],[8.5635,48.9653],[8.5736,48.9872],[8.6009,48.9853],[8.6476,49.0017],[8.7102,48.989],[8.7354,48.9944],[8.7325,49.0277],[8.744,49.0369],[8.7954,49.0457],[8.8206,49.0371],[8.842,49.0602],[8.878,49.0581],[8.8764,49.0696],[8.893,49.0825],[8.8898,49.1153],[8.8587,49.1262],[8.8283,49.1253],[8.8353,49.1548],[8.8177,49.1578],[8.8241,49.1799],[8.8207,49.1942],[8.7521,49.2062],[8.7503,49.2196],[8.7245,49.2371],[8.675,49.2292],[8.5706,49.2547],[8.5486,49.2698],[8.5249,49.2655],[8.5134,49.278],[8.4869,49.2892],[8.467,49.2824]]],[[[8.263,48.9812],[8.2606,48.9579],[8.3091,48.9497],[8.3534,48.9352],[8.3479,48.9232],[8.3156,48.9229],[8.2957,48.9125],[8.2924,48.9002],[8.3119,48.8576],[8.3573,48.8457],[8.3759,48.8556],[8.3898,48.8496],[8.412,48.853],[8.4166,48.8355],[8.4344,48.819],[8.4579,48.8227],[8.493,48.8201],[8.4755,48.8396],[8.4921,48.8544],[8.5169,48.8654],[8.5257,48.8785],[8.5173,48.8983],[8.5345,48.9038],[8.5535,48.9274],[8.535,48.9443],[8.5381,48.9523],[8.5111,48.9427],[8.4681,48.9404],[8.4443,48.9554],[8.4427,48.9694],[8.4166,48.96],[8.3878,48.9583],[8.3708,48.9719],[8.3302,48.9922],[8.3126,48.9834],[8.2779,48.9892],[8.263,48.9812]]]]},"properties":{"ags":"08215","name":"Karlsruhe","typ":"Landkreis"}},
{"type":"Feature","geometry":{"type":"Polygon","coordinates":[[[8.2326,48.9663],[8.1961,48.9555],[8.16,48.9158],[8.129,48.8766],[8.1039,48.8167],[8.0681,48.7899],[8.0449,48.7906],[8.0263,48.7822],[8.0157,48.7609],[7.9736,48.7589],[7.9669,48.7271],[7.958,48.7185],[7.9805,48.7125],[7.9731,48.6921],[8.0015,48.6879],[8.0336,48.6748],[8.0743,48.6726],[8.1093,48.651],[8.1409,48.6567],[8.1983,48.6291],[8.2415,48.6288],[8.2475,48.6084],[8.2225,48.6028],[8.2637,48.5893],[8.2913,48.587],[8.3329,48.5923],[8.3575,48.5992],[8.3507,48.6089],[8.3823,48.6192],[8.3854,48.6319],[8.4099,48.6396],[8.4296,48.6447],[8.444,48.6573],[8.4476,48.686],[8.4399,48.6946],[8.4594,48.7079],[8.4596,48.7192],[8.4768,48.726],[8.4843,48.7565],[8.4605,48.7635],[8.4307,48.7606],[8.4259,48.7906],[8.4068,48.7999],[8.4042,48.8227],[8.3792,48.8309],[8.382,48.8334],[8.4166,48.8355],[8.412,48.853],[8.3898,48.8496],[8.3759,48.8556],[8.3573,48.8457],[8.3119,48.8576],[8.2924,48.9002],[8.2957,48.9125],[8.3156,48.9229],[8.3479,48.9232],[8.3534,48.9352],[8.3091,48.9497],[8.2606,48.9579],[8.263,48.9812],[8.2326,48.9663]],[[8.1703,48.8414],[8.2116,48.8307],[8.2688,48.7977],[8.2899,48.7749],[8.2858,48.7558],[8.3145,48.7407],[8.3206,48.7304],[8.3197,48.7058],[8.2965,48.6932],[8.299,48.6854],[8.2749,48.6693],[8.2373,48.6674],[8.2236,48.6929],[8.1924,48.7159],[8.1465,48.7154],[8.1336,48.7189],[8.1428,48.7411],[8.1738,48.7415],[8.2003,48.7517],[8.2008,48.7618],[8.1671,48.7838],[8.1454,48.7894],[8.1633,48.8015],[8.1666,48.819],[8.1902,48.8335],[8.1703,48.8414]]]},"properties":{"ags":"08216","name":"Rastatt","typ":"Landkreis"}},
{"type":"Feature","geometry":{"type":"Polygon","coordinates":[[[8.5746,49.4157],[8.6114,49.4056],[8.6304,49.4122],[8.6344,49.3923],[8.6067,49.377],[8.6013,49.3655],[8.6362,49.3536],[8.6589,49.3624],[8.7237,49.3573],[8.7326,49.3725],[8.7688,49.379],[8.7788,49.402],[8.7936,49.4051],[8.7877,49.4324],[8.7459,49.4471],[8.7259,49.4484],[8.645,49.437],[8.6271,49.4427],[8.6104,49.4246],[8.5817,49.4264],[8.5746,49.4157]]]},"properties":{"ags":"08221","name":"Heidelberg","typ":"Stadtkreis"}},
{"type":"Feature","geometry":{"type":"Polygon","coordinates":[[[8.4232,49.5833],[8.4227,49.572],[8.4148,49.5546],[8.4228,49.5418],[8.4445,49.4899],[8.4632,49.4727],[8.4422,49.4524],[8.4541,49.4431],[8.4742,49.4428],[8.5083,49.4346],[8.4979,49.4108],[8.5227,49.4181],[8.5746,49.4157],[8.5817,49.4264],[8.5777,49.4436],[8.591,49.4588],[8.568,49.4644],[8.5498,49.481],[8.5579,49.4904],[8.5882,49.5013],[8.5814,49.5196],[8.5665,49.5186],[8.5408,49.5286],[8.5263,49.548],[8.4941,49.5726],[8.4802,49.5742],[8.4648,49.5891],[8.4232,49.5833]]]},"properties":{"ags":"08222","name":"Mannheim","typ":"Stadtkreis"}},
{"type":"Feature","geometry":{"type":"Polygon","coordinates":[[[9.1005,49.5606],[9.0873,49.5484],[9.1262,49.5214],[9.1067,49.5092],[9.1,49.5258],[9.0838,49.5258],[9.0716,49.509],[9.0862,49.4991],[9.0439,49.4756],[9.0244,49.4711],[9.0484,49.4465],[9.0192,49.4265],[9.0189,49.4157],[8.9844,49.4197],[8.9894,49.3996],[8.9629,49.3985],[8.9388,49.3883],[8.9409,49.3728],[8.966,49.3616],[8.9773,49.341],[8.9933,49.3424],[9.043,49.3165],[9.0562,49.3011],[9.049,49.293],[9.0687,49.2789],[9.1082,49.2794],[9.1182,49.2719],[9.1481,49.274],[9.1597,49.3234],[9.1927,49.3275],[9.21,49.3159],[9.2582,49.3033],[9.2695,49.3304],[9.2875,49.3296],[9.2948,49.3475],[9.3154,49.3572],[9.3094,49.3749],[9.3379,49.3848],[9.3615,49.366],[9.398,49.3654],[9.4248,49.3579],[9.4439,49.3643],[9.4463,49.3909],[9.4645,49.3962],[9.4756,49.3855],[9.5065,49.376],[9.5312,49.3816],[9.5673,49.3753],[9.5927,49.3913],[9.5706,49.4162],[9.6037,49.4267],[9.5898,49.4399],[9.5424,49.4497],[9.5311,49.4433],[9.5059,49.4539],[9.517,49.4726],[9.4921,49.4864],[9.4951,49.5024],[9.535,49.5177],[9.5449,49.5294],[9.5222,49.5366],[9.4994,49.5874],[9.5113,49.6021],[9.5307,49.5972],[9.5497,49.6311],[9.5192,49.6439],[9.5025,49.6375],[9.4555,49.6475],[9.4115,49.6621],[9.406,49.6451],[9.3829,49.6432],[9.369,49.6555],[9.3374,49.6444],[9.3134,49.6537],[9.2686,49.6318],[9.2846,49.6149],[9.2642,49.6068],[9.2495,49.5846],[9.1945,49.5739],[9.1404,49.5779],[9.1029,49.5775],[9.1005,49.5606]]]},"properties":{"ags":"08225","name":"Neckar-Odenwald-Kreis","typ":"Landkreis"}},
{"type":"Feature","geometry":{"type":"Polygon","coordinates":[[[8.8995,49.4842],[8.8983,49.5028],[8.8807,49.5058],[8.8456,49.502],[8.832,49.4922],[8.7965,49.5122],[8.7593,49.5161],[8.7103,49.5321],[8.6834,49.573],[8.6834,49.5894],[8.6977,49.6],[8.679,49.6252],[8.5939,49.6097],[8.6197,49.5423],[8.5814,49.5196],[8.5882,49.5013],[8.5579,49.4904],[8.5498,49.481],[8.568,49.4644],[8.591,49.4588],[8.5777,49.4436],[8.5817,49.4264],[8.6104,49.4246],[8.6271,49.4427],[8.645,49.437],[8.7259,49.4484],[8.7459,49.4471],[8.7877,49.4324],[8.7936,49.4051],[8.7788,49.402],[8.7688,49.379],[8.7326,49.3725],[8.7237,49.3573],[8.6589,49.3624],[8.6362,49.3536],[8.6013,49.3655],[8.6067,49.377],[8.6344,49.3923],[8.6304,49.4122],[8.6114,49.4056],[8.5746,49.4157],[8.5227,49.4181],[8.4979,49.4108],[8.492,49.397],[8.466,49.3866],[8.4768,49.3751],[8.502,49.3765],[8.4967,49.3602],[8.4697,49.3391],[8.4531,49.3275],[8.4534,49.3164],[8.4755,49.3087],[8.4869,49.2892],[8.5134,49.278],[8.5249,49.2655],[8.5486,49.2698],[8.5706,49.2547],[8.675,49.2292],[8.7245,49.2371],[8.7503,49.2196],[8.7521,49.2062],[8.8207,49.1942],[8.8639,49.1744],[8.8963,49.182],[8.8868,49.2024],[8.9574,49.2133],[8.9663,49.2283],[9.0057,49.2416],[8.9968,49.2531],[9.0318,49.2695],[9.049,49.293],[9.0562,49.3011],[9.043,49.3165],[8.9933,49.3424],[8.9773,49.341],[8.966,49.3616],[8.9409,49.3728],[8.9388,49.3883],[8.9629,49.3985],[8.9894,49.3996],[8.9844,49.4197],[9.0189,49.4157],[9.0192,49.4265],[9.0484,49.4465],[9.0244,49.4711],[9.0439,49.4756],[9.0862,49.4991],[9.0716,49.509],[9.0838,49.5258],[9.0664,49.53],[9.0508,49.5195],[9.0432,49.5019],[9.0162,49.497],[8.986,49.51],[8.9422,49.4855],[8.9312,49.4698],[8.9509,49.4535],[8.9233,49.4392],[8.9,49.4347],[8.8953,49.4219],[8.8578,49.3967],[8.8375,49.4056],[8.8235,49.3949],[8.8036,49.4035],[8.8065,49.4192],[8.8323,49.4247],[8.8343,49.4503],[8.8268,49.4707],[8.8518,49.4839],[8.8771,49.4668],[8.8995,49.4842]]]},"properties":{"ags":"08226","name":"Rhein-Neckar-Kreis","typ":"Landkreis"}},
{"type":"Feature","geometry":{"type":"Polygon","coordinates":[[[8.7007,48.8381],[8.7413,48.8228],[8.7681,48.8347],[8.776,48.8525],[8.7965,48.8676],[8.7932,48.891],[8.757,48.8992],[8.7662,48.9184],[8.7458,48.9286],[8.6972,48.9236],[8.6782,48.9108],[8.648,48.9202],[8.6268,48.9055],[8.6429,48.8933],[8.6476,48.8666],[8.6342,48.8453],[8.6588,48.8349],[8.6911,48.8351],[8.7007,48.8381]]]},"properties":{"ags":"08231","name":"Pforzheim","typ":"Stadtkreis"}},
{"type":"Feature","geometry":{"type":"Polygon","coordinates":[[[8.8043,48.7781],[8.7811,48.7742],[8.7604,48.7822],[8.7407,48.8028],[8.7281,48.7979],[8.7152,48.817],[8.7154,48.8297],[8.7007,48.8381],[8.6911,48.8351],[8.6954,48.8169],[8.653,48.8124],[8.6126,48.827],[8.6083,48.8106],[8.5878,48.8176],[8.5615,48.8109],[8.5443,48.7854],[8.5171,48.7955],[8.5255,48.8108],[8.493,48.8201],[8.4579,48.8227],[8.4344,48.819],[8.4166,48.8355],[8.382,48.8334],[8.3792,48.8309],[8.4042,48.8227],[8.4068,48.7999],[8.4259,48.7906],[8.4307,48.7606],[8.4605,48.7635],[8.4843,48.7565],[8.4768,48.726],[8.4596,48.7192],[8.4594,48.7079],[8.4399,48.6946],[8.4476,48.686],[8.444,48.6573],[8.4296,48.6447],[8.4099,48.6396],[8.4557,48.6145],[8.4938,48.6028],[8.5025,48.5929],[8.5313,48.5914],[8.562,48.5687],[8.5593,48.5497],[8.5868,48.5452],[8.5958,48.5539],[8.6226,48.5409],[8.5987,48.5116],[8.6068,48.5044],[8.6358,48.5002],[8.6727,48.5103],[8.7024,48.4869],[8.7345,48.4876],[8.7389,48.5042],[8.7562,48.5035],[8.7706,48.5226],[8.7581,48.5305],[8.7551,48.5858],[8.7604,48.604],[8.7929,48.5958],[8.801,48.61],[8.7903,48.6377],[8.7992,48.6582],[8.8189,48.6642],[8.8364,48.683],[8.863,48.6973],[8.8751,48.7262],[8.8545,48.7345],[8.8296,48.7368],[8.8352,48.7538],[8.8043,48.7781]]]},"properties":{"ags":"08235","name":"Calw","typ":"Landkreis"}},
{"type":"Feature","geometry":{"type":"Polygon","coordinates":[[[8.9291,48.8667],[8.9178,48.8833],[8.9041,48.942],[8.9408,48.9387],[8.9462,48.9584],[8.9208,48.9826],[8.9315,48.9949],[8.9041,49.0216],[8.8757,49.0372],[8.878,49.0581],[8.842,49.0602],[8.8206,49.0371],[8.7954,49.0457],[8.744,49.0369],[8.7325,49.0277],[8.7354,48.9944],[8.7102,48.989],[8.6476,49.0017],[8.6009,48.9853],[8.5736,48.9872],[8.5635,48.9653],[8.5389,48.9537],[8.5381,48.9523],[8.535,48.9443],[8.5535,48.9274],[8.5345,48.9038],[8.5173,48.8983],[8.5257,48.8785],[8.5169,48.8654],[8.4921,48.8544],[8.4755,48.8396],[8.493,48.8201],[8.5255,48.8108],[8.5171,48.7955],[8.5443,48.7854],[8.5615,48.8109],[8.5878,48.8176],[8.6083,48.8106],[8.6126,48.827],[8.653,48.8124],[8.6954,48.8169],[8.6911,48.8351],[8.6588,48.8349],[8.6342,48.8453],[8.6476,48.8666],[8.6429,48.8933],[8.6268,48.9055],[8.648,48.9202],[8.6782,48.9108],[8.6972,48.9236],[8.7458,48.9286],[8.7662,48.9184],[8.757,48.8992],[8.7932,48.891],[8.7965,48.8676],[8.776,48.8525],[8.7681,48.8347],[8.7413,48.8228],[8.7007,48.8381],[8.7154,48.8297],[8.7152,48.817],[8.7281,48.7979],[8.7407,48.8028],[8.7604,48.7822],[8.7811,48.7742],[8.8043,48.7781],[8.8423,48.7992],[8.8679,48.7924],[8.8921,48.804],[8.8948,48.8207],[8.874,48.8373],[8.8958,48.8472],[8.9063,48.8622],[8.9291,48.8667]]]},"properties":{"ags":"08236","name":"Enzkreis","typ":"Landkreis"}},
{"type":"Feature","geometry":{"type":"Polygon","coordinates":[[[8.2225,48.6028],[8.2202,48.5864],[8.2349,48.5709],[8.2127,48.5543],[8.2214,48.5033],[8.2457,48.4904],[8.2595,48.4926],[8.2686,48.4489],[8.255,48.4339],[8.2551,48.4135],[8.2337,48.4015],[8.2516,48.3698],[8.2912,48.3574],[8.3033,48.3494],[8.3297,48.3865],[8.3538,48.3814],[8.3598,48.3387],[8.395,48.3228],[8.4316,48.3227],[8.4383,48.3045],[8.4586,48.313],[8.4943,48.3138],[8.5014,48.3315],[8.485,48.3337],[8.4961,48.3583],[8.4847,48.3819],[8.5203,48.386],[8.5208,48.4009],[8.5551,48.3996],[8.5837,48.4037],[8.6058,48.396],[8.6403,48.4024],[8.654,48.3944],[8.6763,48.4002],[8.6904,48.387],[8.7369,48.3768],[8.7573,48.3817],[8.7565,48.3927],[8.7717,48.4162],[8.7705,48.4346],[8.7903,48.4514],[8.8279,48.4625],[8.8072,48.4788],[8.7776,48.4857],[8.7562,48.5035],[8.7389,48.5042],[8.7345,48.4876],[8.7024,48.4869],[8.6727,48.5103],[8.6358,48.5002],[8.6068,48.5044],[8.5987,48.5116],[8.6226,48.5409],[8.5958,48.5539],[8.5868,48.5452],[8.5593,48.5497],[8.562,48.5687],[8.5313,48.5914],[8.5025,48.5929],[8.4938,48.6028],[8.4557,48.6145],[8.4099,48.6396],[8.3854,48.6319],[8.3823,48.6192],[8.3507,48.6089],[8.3575,48.5992],[8.3329,48.5923],[8.2913,48.587],[8.2637,48.5893],[8.2225,48.6028]]]},"properties":{"ags":"08237","name":"Freudenstadt","typ":"Landkreis"}},
{"type":"Feature","geometry":{"type":"Polygon","coordinates":[[[7.8253,48.0691],[7.7966,48.0609],[7.7881,48.0299],[7.7683,48.0169],[7.7259,48.0363],[7.7032,48.0277],[7.7047,48.0099],[7.6792,47.9963],[7.6778,47.9589],[7.7036,47.9589],[7.7268,47.9785],[7.7678,47.9774],[7.8024,47.9638],[7.8222,47.9723],[7.8489,47.9607],[7.8566,47.9486],[7.8788,47.9474],[7.8627,47.9131],[7.8837,47.904],[7.9085,47.9144],[7.9094,47.9289],[7.9246,47.939],[7.9154,47.9625],[7.9305,47.9918],[7.9267,48.0136],[7.8873,48.0103],[7.8737,48.0154],[7.8766,48.0295],[7.852,48.0367],[7.8499,48.0535],[7.8253,48.0691]]]},"properties":{"ags":"08311","name":"Freiburg im Breisgau","typ":"Stadtkreis"}},
{"type":"Feature","geometry":{"type":"Polygon","coordinates":[[[7.8253,48.0691],[7.7864,48.0846],[7.7531,48.0886],[7.761,48.0985],[7.7511,48.1128],[7.7056,48.1059],[7.6818,48.1153],[7.6659,48.1092],[7.6348,48.1123],[7.6099,48.1065],[7.5776,48.1153],[7.58,48.1029],[7.5692,48.0792],[7.5735,48.059],[7.5715,48.0309],[7.6155,47.9915],[7.6211,47.9687],[7.5873,47.9362],[7.5808,47.9231],[7.5823,47.9022],[7.5555,47.8753],[7.5623,47.8439],[7.5314,47.7865],[7.5335,47.7665],[7.5461,47.7437],[7.5726,47.7697],[7.6152,47.7745],[7.6203,47.757],[7.7254,47.7888],[7.7638,47.7922],[7.7783,47.8035],[7.8192,47.8118],[7.8698,47.8474],[7.8966,47.8801],[7.9323,47.8747],[7.9423,47.879],[7.9841,47.865],[8.0111,47.8663],[8.0181,47.8408],[8.0277,47.8496],[8.0574,47.857],[8.0734,47.8544],[8.0987,47.8054],[8.1239,47.8023],[8.1541,47.7724],[8.1846,47.7774],[8.1891,47.7612],[8.217,47.767],[8.2069,47.785],[8.2216,47.8081],[8.2108,47.8183],[8.2308,47.8335],[8.2571,47.8391],[8.2663,47.8518],[8.2858,47.8537],[8.32,47.8421],[8.39,47.8408],[8.4088,47.8489],[8.4387,47.8535],[8.4391,47.8753],[8.4206,47.8845],[8.4122,47.9014],[8.3545,47.9256],[8.3127,47.9518],[8.2813,47.9508],[8.3147,47.9767],[8.3066,47.9926],[8.2824,47.9868],[8.2179,47.997],[8.1959,47.9835],[8.1357,48.0088],[8.0911,48.0431],[8.0785,48.0431],[8.0663,48.0632],[8.0429,48.0576],[7.9822,48.0637],[7.9505,48.0575],[7.9213,48.0648],[7.8832,48.0529],[7.8499,48.0535],[7.852,48.0367],[7.8766,48.0295],[7.8737,48.0154],[7.8873,48.0103],[7.9267,48.0136],[7.9305,47.9918],[7.9154,47.9625],[7.9246,47.939],[7.9094,47.9289],[7.9085,47.9144],[7.8837,47.904],[7.8627,47.9131],[7.8788,47.9474],[7.8566,47.9486],[7.8489,47.9607],[7.8222,47.9723],[7.8024,47.9638],[7.7678,47.9774],[7.7268,47.9785],[7.7036,47.9589],[7.6778,47.9589],[7.6792,47.9963],[7.7047,48.0099],[7.7032,48.0277],[7.7259,48.0363],[7.7683,48.0169],[7.7881,48.0299],[7.7966,48.0609],[7.8253,48.0691]]]},"properties":{"ags":"08315","name":"Breisgau-Hochschwarzwald","typ":"Landkreis"}},
{"type":"Feature","geometry":{"type":"Polygon","coordinates":[[[7.8499,48.0535],[7.8832,48.0529],[7.9213,48.0648],[7.9505,48.0575],[7.9822,48.0637],[8.0429,48.0576],[8.0663,48.0632],[8.0785,48.0431],[8.0911,48.0431],[8.1357,48.0088],[8.1168,48.0362],[8.1246,48.0525],[8.1091,48.0631],[8.1326,48.0737],[8.1525,48.0982],[8.1248,48.1327],[8.1417,48.1414],[8.1364,48.1643],[8.1664,48.1741],[8.1792,48.1843],[8.1877,48.2022],[8.1711,48.2115],[8.1655,48.225],[8.1504,48.2291],[8.1163,48.2105],[8.0922,48.2123],[8.0675,48.227],[8.0327,48.2238],[8.0174,48.2342],[7.9941,48.2245],[8.0023,48.213],[7.981,48.202],[7.9468,48.2043],[7.9044,48.22],[7.8485,48.2337],[7.8166,48.2247],[7.768,48.2417],[7.7344,48.236],[7.7119,48.2593],[7.6813,48.2569],[7.6664,48.2211],[7.6452,48.2081],[7.6302,48.1846],[7.6024,48.1598],[7.5993,48.1361],[7.5776,48.1153],[7.6099,48.1065],[7.6348,48.1123],[7.6659,48.1092],[7.6818,48.1153],[7.7056,48.1059],[7.7511,48.1128],[7.761,48.0985],[7.7531,48.0886],[7.7864,48.0846],[7.8253,48.0691],[7.8499,48.0535]]]},"properties":{"ags":"08316","name":"Emmendingen","typ":"Landkreis"}},
{"type":"Feature","geometry":{"type":"Polygon","coordinates":[[[7.958,48.7185],[7.8835,48.6587],[7.8441,48.6453],[7.8278,48.6167],[7.801,48.5867],[7.8056,48.5613],[7.8066,48.5193],[7.7945,48.5018],[7.7727,48.4933],[7.7634,48.4515],[7.7354,48.4031],[7.7311,48.3881],[7.7447,48.3378],[7.7352,48.3184],[7.7039,48.3094],[7.6915,48.2997],[7.6813,48.2569],[7.7119,48.2593],[7.7344,48.236],[7.768,48.2417],[7.8166,48.2247],[7.8485,48.2337],[7.9044,48.22],[7.9468,48.2043],[7.981,48.202],[8.0023,48.213],[7.9941,48.2245],[8.0174,48.2342],[8.0327,48.2238],[8.0675,48.227],[8.0922,48.2123],[8.1163,48.2105],[8.1504,48.2291],[8.1655,48.225],[8.1711,48.2115],[8.1877,48.2022],[8.1792,48.1843],[8.2089,48.1703],[8.2241,48.1578],[8.2401,48.1707],[8.2444,48.1862],[8.2817,48.1714],[8.3111,48.1924],[8.312,48.2132],[8.2936,48.2254],[8.2868,48.2479],[8.2871,48.2823],[8.2928,48.2902],[8.3225,48.293],[8.3302,48.3012],[8.3218,48.3279],[8.3033,48.3494],[8.2912,48.3574],[8.2516,48.3698],[8.2337,48.4015],[8.2551,48.4135],[8.255,48.4339],[8.2686,48.4489],[8.2595,48.4926],[8.2457,48.4904],[8.2214,48.5033],[8.2127,48.5543],[8.2349,48.5709],[8.2202,48.5864],[8.2225,48.6028],[8.2475,48.6084],[8.2415,48.6288],[8.1983,48.6291],[8.1409,48.6567],[8.1093,48.651],[8.0743,48.6726],[8.0336,48.6748],[8.0015,48.6879],[7.9731,48.6921],[7.9805,48.7125],[7.958,48.7185]]]},"properties":{"ags":"08317","name":"Ortenaukreis","typ":"Landkreis"}},
{"type":"Feature","geometry":{"type":"Polygon","coordinates":[[[8.3033,48.3494],[8.3218,48.3279],[8.3302,48.3012],[8.3225,48.293],[8.2928,48.2902],[8.2871,48.2823],[8.2868,48.2479],[8.2936,48.2254],[8.312,48.2132],[8.3111,48.1924],[8.2817,48.1714],[8.3061,48.1723],[8.3319,48.1616],[8.3791,48.1741],[8.4257,48.1677],[8.4352,48.1822],[8.4774,48.1757],[8.48,48.1692],[8.5167,48.1674],[8.5358,48.1375],[8.5497,48.1337],[8.5479,48.108],[8.5786,48.0874],[8.5849,48.0717],[8.6059,48.0752],[8.6003,48.0858],[8.6135,48.0968],[8.6619,48.1211],[8.6791,48.1172],[8.712,48.1412],[8.7459,48.1457],[8.7517,48.1597],[8.7243,48.1729],[8.744,48.2012],[8.7256,48.203],[8.704,48.228],[8.698,48.2454],[8.7083,48.2525],[8.6868,48.266],[8.6832,48.2811],[8.6595,48.2833],[8.6688,48.3049],[8.686,48.304],[8.7186,48.3152],[8.7143,48.339],[8.7442,48.3498],[8.732,48.3662],[8.7369,48.3768],[8.6904,48.387],[8.6763,48.4002],[8.654,48.3944],[8.6403,48.4024],[8.6058,48.396],[8.5837,48.4037],[8.5551,48.3996],[8.5208,48.4009],[8.5203,48.386],[8.4847,48.3819],[8.4961,48.3583],[8.485,48.3337],[8.5014,48.3315],[8.4943,48.3138],[8.4586,48.313],[8.4383,48.3045],[8.4316,48.3227],[8.395,48.3228],[8.3598,48.3387],[8.3538,48.3814],[8.3297,48.3865],[8.3033,48.3494]]]},"properties":{"ags":"08325","name":"Rottweil","typ":"Landkreis"}},
{"type":"Feature","geometry":{"type":"Polygon","coordinates":[[[8.4387,47.8535],[8.4723,47.8463],[8.4723,47.8296],[8.506,47.8293],[8.5134,47.7975],[8.5298,47.7867],[8.5103,47.7758],[8.5527,47.7843],[8.5633,47.8045],[8.6138,47.8012],[8.6257,47.8143],[8.6288,47.8397],[8.6402,47.855],[8.6095,47.8768],[8.6207,47.8872],[8.5915,47.9027],[8.5873,47.9434],[8.6029,47.9511],[8.6356,47.9504],[8.6361,47.9691],[8.6613,47.9712],[8.6519,47.9904],[8.6302,48.0151],[8.6435,48.0326],[8.6365,48.0488],[8.6059,48.0752],[8.5849,48.0717],[8.5786,48.0874],[8.5479,48.108],[8.5497,48.1337],[8.5358,48.1375],[8.5167,48.1674],[8.48,48.1692],[8.4774,48.1757],[8.4352,48.1822],[8.4257,48.1677],[8.3791,48.1741],[8.3319,48.1616],[8.3061,48.1723],[8.2817,48.1714],[8.2444,48.1862],[8.2401,48.1707],[8.2241,48.1578],[8.2089,48.1703],[8.1792,48.1843],[8.1664,48.1741],[8.1364,48.1643],[8.1417,48.1414],[8.1248,48.1327],[8.1525,48.0982],[8.1326,48.0737],[8.1091,48.0631],[8.1246,48.0525],[8.1168,48.0362],[8.1357,48.0088],[8.1959,47.9835],[8.2179,47.997],[8.2824,47.9868],[8.3066,47.9926],[8.3147,47.9767],[8.2813,47.9508],[8.3127,47.9518],[8.3545,47.9256],[8.4122,47.9014],[8.4206,47.8845],[8.4391,47.8753],[8.4387,47.8535]]]},"properties":{"ags":"08326","name":"Schwarzwald-Baar-Kreis","typ":"Landkreis"}},
{"type":"Feature","geometry":{"type":"Polygon","coordinates":[[[8.6059,48.0752],[8.6365,48.0488],[8.6435,48.0326],[8.6302,48.0151],[8.6519,47.9904],[8.6613,47.9712],[8.6361,47.9691],[8.6356,47.9504],[8.6029,47.9511],[8.5873,47.9434],[8.5915,47.9027],[8.6207,47.8872],[8.6095,47.8768],[8.6402,47.855],[8.6563,47.8465],[8.6914,47.8527],[8.6961,47.8768],[8.7182,47.889],[8.7318,47.8857],[8.7655,47.8889],[8.7978,47.8968],[8.7998,47.9138],[8.8187,47.927],[8.8178,47.8874],[8.8518,47.8823],[8.8777,47.9111],[8.9241,47.9218],[8.9539,47.9333],[8.9651,47.9246],[8.9836,47.9383],[9.0126,47.9369],[9.021,47.9471],[9.0213,47.9803],[9.0131,48.0175],[9.0066,48.0251],[8.9606,48.0356],[8.9344,48.0494],[8.9479,48.0563],[8.986,48.06],[8.9963,48.0706],[8.9794,48.0859],[8.9626,48.0912],[8.9535,48.1071],[8.9373,48.1036],[8.9133,48.1104],[8.8842,48.1052],[8.8605,48.144],[8.8311,48.1503],[8.8293,48.1711],[8.8072,48.1848],[8.7689,48.1831],[8.7643,48.1633],[8.7517,48.1597],[8.7459,48.1457],[8.712,48.1412],[8.6791,48.1172],[8.6619,48.1211],[8.6135,48.0968],[8.6003,48.0858],[8.6059,48.0752]]]},"properties":{"ags":"08327","name":"Tuttlingen","typ":"Landkreis"}},
{"type":"Feature","geometry":{"type":"MultiPolygon","coordinates":[[[[8.6138,47.8012],[8.6316,47.7583],[8.6513,47.7719],[8.6457,47.787],[8.6812,47.7863],[8.6905,47.7578],[8.7145,47.7654],[8.74,47.7529],[8.7147,47.7381],[8.7178,47.7215],[8.7365,47.7163],[8.7274,47.6927],[8.7557,47.6895],[8.7917,47.6754],[8.7977,47.7029],[8.7694,47.7072],[8.7701,47.7181],[8.7992,47.7281],[8.8194,47.7133],[8.8454,47.7114],[8.8579,47.6989],[8.8601,47.6806],[8.8757,47.6561],[8.8952,47.6519],[8.9363,47.6589],[8.9984,47.6869],[9.0059,47.6972],[8.9928,47.707],[8.9434,47.7243],[8.9614,47.7364],[9.0058,47.7261],[9.0055,47.7356],[9.1017,47.7018],[9.1268,47.6664],[9.1813,47.6672],[9.2089,47.6635],[9.2106,47.6849],[9.1803,47.7062],[9.1766,47.7298],[9.1493,47.7491],[9.0692,47.7783],[9.0319,47.8084],[9.0412,47.8167],[9.0697,47.8064],[9.0804,47.8316],[9.0659,47.8539],[9.0734,47.8603],[9.1033,47.8414],[9.1284,47.8468],[9.1313,47.8626],[9.1481,47.878],[9.1458,47.8983],[9.1266,47.9009],[9.0865,47.916],[9.0669,47.9152],[9.0728,47.9425],[9.0515,47.9363],[9.0126,47.9369],[8.9836,47.9383],[8.9651,47.9246],[8.9539,47.9333],[8.9241,47.9218],[8.8777,47.9111],[8.8518,47.8823],[8.8178,47.8874],[8.8187,47.927],[8.7998,47.9138],[8.7978,47.8968],[8.7655,47.8889],[8.7318,47.8857],[8.7182,47.889],[8.6961,47.8768],[8.6914,47.8527],[8.6563,47.8465],[8.6402,47.855],[8.6288,47.8397],[8.6257,47.8143],[8.6138,47.8012]]],[[[9.0534,47.7028],[9.0461,47.6925],[9.0694,47.6853],[9.0715,47.6989],[9.0534,47.7028]]],[[[8.7031,47.7146],[8.685,47.7085],[8.6733,47.6956],[8.7172,47.6906],[8.7031,47.7146]]]]},"properties":{"ags":"08335","name":"Konstanz","typ":"Landkreis"}},
{"type":"Feature","geometry":{"type":"Polygon","coordinates":[[[7.5461,47.7437],[7.5413,47.7215],[7.5114,47.6974],[7.5205,47.6628],[7.5596,47.6374],[7.5744,47.6154],[7.5891,47.6069],[7.5892,47.5897],[7.6193,47.5773],[7.6443,47.5962],[7.6673,47.5919],[7.684,47.574],[7.6761,47.5657],[7.648,47.5603],[7.6497,47.548],[7.6778,47.5338],[7.6972,47.5339],[7.7201,47.5421],[7.7462,47.5439],[7.7898,47.5554],[7.8112,47.5694],[7.8205,47.5872],[7.8391,47.5822],[7.8696,47.5886],[7.8949,47.5857],[7.9009,47.6018],[7.8776,47.617],[7.8713,47.6445],[7.8978,47.6448],[7.9099,47.6644],[7.9272,47.6747],[7.9642,47.6842],[7.9802,47.7013],[7.9806,47.712],[7.9587,47.7301],[7.9744,47.7431],[7.9708,47.7585],[8.0026,47.7703],[7.9981,47.8057],[7.9998,47.827],[8.0181,47.8408],[8.0111,47.8663],[7.9841,47.865],[7.9423,47.879],[7.9323,47.8747],[7.8966,47.8801],[7.8698,47.8474],[7.8192,47.8118],[7.7783,47.8035],[7.7638,47.7922],[7.7254,47.7888],[7.6203,47.757],[7.6152,47.7745],[7.5726,47.7697],[7.5461,47.7437]]]},"properties":{"ags":"08336","name":"Lörrach","typ":"Landkreis"}},
{"type":"Feature","geometry":{"type":"Polygon","coordinates":[[[8.0181,47.8408],[7.9998,47.827],[7.9981,47.8057],[8.0026,47.7703],[7.9708,47.7585],[7.9744,47.7431],[7.9587,47.7301],[7.9806,47.712],[7.9802,47.7013],[7.9642,47.6842],[7.9272,47.6747],[7.9099,47.6644],[7.8978,47.6448],[7.8713,47.6445],[7.8776,47.617],[7.9009,47.6018],[7.8949,47.5857],[7.9112,47.5669],[7.9196,47.5477],[7.948,47.5451],[7.96,47.558],[7.9993,47.5564],[8.0231,47.5507],[8.0712,47.5643],[8.0995,47.5647],[8.1117,47.5835],[8.1336,47.5837],[8.1513,47.5956],[8.1665,47.5952],[8.2055,47.6207],[8.225,47.6056],[8.2569,47.6152],[8.2972,47.604],[8.2984,47.5886],[8.3214,47.5745],[8.3829,47.566],[8.4004,47.5768],[8.4277,47.5668],[8.4672,47.5731],[8.4571,47.5975],[8.4805,47.6142],[8.5078,47.6171],[8.516,47.6333],[8.5387,47.6309],[8.5689,47.617],[8.5616,47.6011],[8.5823,47.5961],[8.6043,47.6123],[8.5948,47.6419],[8.6079,47.6523],[8.6055,47.6718],[8.5772,47.6622],[8.5638,47.6704],[8.5266,47.6604],[8.5297,47.6454],[8.4761,47.6438],[8.4459,47.6542],[8.4061,47.6752],[8.4208,47.6845],[8.4061,47.6955],[8.4478,47.7222],[8.4505,47.7402],[8.4911,47.7715],[8.5103,47.7758],[8.5298,47.7867],[8.5134,47.7975],[8.506,47.8293],[8.4723,47.8296],[8.4723,47.8463],[8.4387,47.8535],[8.4088,47.8489],[8.39,47.8408],[8.32,47.8421],[8.2858,47.8537],[8.2663,47.8518],[8.2571,47.8391],[8.2308,47.8335],[8.2108,47.8183],[8.2216,47.8081],[8.2069,47.785],[8.217,47.767],[8.1891,47.7612],[8.1846,47.7774],[8.1541,47.7724],[8.1239,47.8023],[8.0987,47.8054],[8.0734,47.8544],[8.0574,47.857],[8.0277,47.8496],[8.0181,47.8408]]]},"properties":{"ags":"08337","name":"Waldshut","typ":"Landkreis"}},
{"type":"Feature","geometry":{"type":"Polygon","coordinates":[[[9.1322,48.6018],[9.1286,48.5697],[9.154,48.549],[9.1692,48.5482],[9.1739,48.5277],[9.138,48.5226],[9.1366,48.5053],[9.1537,48.4926],[9.125,48.4823],[9.1387,48.4571],[9.1145,48.4351],[9.1244,48.4222],[9.1477,48.4113],[9.125,48.3969],[9.1291,48.3732],[9.1795,48.3678],[9.1669,48.3533],[9.1742,48.3446],[9.2074,48.3333],[9.2162,48.3164],[9.2103,48.307],[9.1625,48.3127],[9.1873,48.2809],[9.2133,48.2831],[9.2254,48.2667],[9.2567,48.2693],[9.2756,48.2845],[9.3111,48.2589],[9.33,48.2564],[9.3475,48.2392],[9.3866,48.1993],[9.4969,48.2131],[9.4901,48.2326],[9.4898,48.2423],[9.5247,48.2528],[9.5056,48.2787],[9.5577,48.2939],[9.5331,48.3144],[9.5591,48.3325],[9.5788,48.3275],[9.5913,48.35],[9.5811,48.3955],[9.6213,48.3954],[9.6238,48.4141],[9.6385,48.4236],[9.6138,48.4696],[9.5886,48.4766],[9.5922,48.4866],[9.5858,48.5369],[9.583,48.5389],[9.5501,48.5284],[9.5111,48.5232],[9.5055,48.5147],[9.4778,48.518],[9.4868,48.5327],[9.4506,48.5465],[9.4184,48.5358],[9.3698,48.5338],[9.34,48.5485],[9.3235,48.5412],[9.3223,48.569],[9.3016,48.578],[9.2954,48.5655],[9.2578,48.5662],[9.2371,48.5753],[9.2241,48.566],[9.2074,48.5723],[9.2029,48.6032],[9.1498,48.604],[9.1322,48.6018]]]},"properties":{"ags":"08415","name":"Reutlingen","typ":"Landkreis"}},
{"type":"Feature","geometry":{"type":"Polygon","coordinates":[[[8.7706,48.5226],[8.7562,48.5035],[8.7776,48.4857],[8.8072,48.4788],[8.8279,48.4625],[8.7903,48.4514],[8.7705,48.4346],[8.7717,48.4162],[8.7952,48.4168],[8.8004,48.4071],[8.8309,48.4064],[8.8677,48.415],[8.875,48.397],[8.8904,48.3998],[8.9727,48.3854],[9.0228,48.3743],[9.0576,48.3728],[9.0729,48.3625],[9.1095,48.3737],[9.1291,48.3732],[9.125,48.3969],[9.1477,48.4113],[9.1244,48.4222],[9.1145,48.4351],[9.1387,48.4571],[9.125,48.4823],[9.1537,48.4926],[9.1366,48.5053],[9.138,48.5226],[9.1739,48.5277],[9.1692,48.5482],[9.154,48.549],[9.1286,48.5697],[9.1322,48.6018],[9.0956,48.6216],[9.0889,48.6033],[9.0531,48.5939],[9.0351,48.5779],[9.0073,48.5885],[8.9792,48.5915],[8.9507,48.5883],[8.9356,48.5765],[8.9128,48.5717],[8.8865,48.5557],[8.8872,48.5423],[8.8515,48.5373],[8.8601,48.5261],[8.8435,48.5079],[8.7995,48.509],[8.7901,48.5198],[8.7706,48.5226]]]},"properties":{"ags":"08416","name":"Tübingen","typ":"Landkreis"}},
{"type":"Feature","geometry":{"type":"Polygon","coordinates":[[[8.7369,48.3768],[8.732,48.3662],[8.7442,48.3498],[8.7143,48.339],[8.7186,48.3152],[8.686,48.304],[8.6688,48.3049],[8.6595,48.2833],[8.6832,48.2811],[8.6868,48.266],[8.7083,48.2525],[8.698,48.2454],[8.704,48.228],[8.7256,48.203],[8.744,48.2012],[8.7243,48.1729],[8.7517,48.1597],[8.7643,48.1633],[8.7689,48.1831],[8.8072,48.1848],[8.8293,48.1711],[8.8311,48.1503],[8.8605,48.144],[8.8842,48.1052],[8.9133,48.1104],[8.9373,48.1036],[8.9535,48.1071],[8.9501,48.115],[8.983,48.1241],[9.0096,48.1595],[9.0325,48.165],[9.0637,48.1515],[9.0888,48.1488],[9.1128,48.1571],[9.1212,48.1446],[9.1465,48.1413],[9.1664,48.1473],[9.1817,48.1775],[9.1796,48.2156],[9.127,48.2293],[9.1116,48.2363],[9.1099,48.2517],[9.1877,48.2728],[9.1873,48.2809],[9.1625,48.3127],[9.2103,48.307],[9.2162,48.3164],[9.2074,48.3333],[9.1742,48.3446],[9.1669,48.3533],[9.1795,48.3678],[9.1291,48.3732],[9.1095,48.3737],[9.0729,48.3625],[9.0576,48.3728],[9.0228,48.3743],[8.9727,48.3854],[8.8904,48.3998],[8.875,48.397],[8.8677,48.415],[8.8309,48.4064],[8.8004,48.4071],[8.7952,48.4168],[8.7717,48.4162],[8.7565,48.3927],[8.7573,48.3817],[8.7369,48.3768]]]},"properties":{"ags":"08417","name":"Zollernalbkreis","typ":"Landkreis"}},
{"type":"Feature","geometry":{"type":"Polygon","coordinates":[[[10.0343,48.458],[10.0212,48.4647],[9.982,48.463],[9.9572,48.4461],[9.9404,48.4518],[9.9155,48.4419],[9.9069,48.4246],[9.9267,48.4245],[9.9008,48.3958],[9.8763,48.3965],[9.869,48.376],[9.8489,48.3754],[9.8481,48.353],[9.8779,48.3536],[9.9021,48.3432],[9.9278,48.3406],[9.9253,48.3266],[9.9378,48.3109],[9.9912,48.328],[9.9823,48.3477],[9.9957,48.3507],[9.9914,48.3691],[9.9714,48.3799],[10.0138,48.4035],[10.0187,48.4186],[10.0415,48.4296],[10.0281,48.4372],[10.0343,48.458]]]},"properties":{"ags":"08421","name":"Ulm","typ":"Stadtkreis"}},
{"type":"Feature","geometry":{"type":"Polygon","coordinates":[[[9.5858,48.5369],[9.5922,48.4866],[9.5886,48.4766],[9.6138,48.4696],[9.6385,48.4236],[9.6238,48.4141],[9.6213,48.3954],[9.5811,48.3955],[9.5913,48.35],[9.5788,48.3275],[9.5591,48.3325],[9.5331,48.3144],[9.5577,48.2939],[9.5056,48.2787],[9.5247,48.2528],[9.4898,48.2423],[9.4901,48.2326],[9.5273,48.2214],[9.5292,48.2057],[9.5455,48.193],[9.578,48.1932],[9.5946,48.2055],[9.6255,48.1979],[9.644,48.1872],[9.6569,48.1681],[9.6998,48.1796],[9.7149,48.1715],[9.7447,48.176],[9.7419,48.2041],[9.7683,48.2158],[9.7642,48.2264],[9.795,48.2311],[9.7928,48.2452],[9.847,48.2587],[9.872,48.2752],[9.8817,48.2937],[9.9096,48.284],[9.9261,48.2687],[9.958,48.2703],[9.9894,48.2624],[9.9908,48.2438],[10.0114,48.2431],[10.0204,48.2309],[10.0405,48.2287],[10.036,48.2001],[10.0683,48.1901],[10.0446,48.1818],[10.0474,48.1653],[10.0352,48.153],[10.0503,48.1425],[10.0976,48.1621],[10.0829,48.2086],[10.0684,48.2229],[10.0628,48.2455],[10.068,48.2541],[10.0651,48.2824],[10.0473,48.2908],[9.9957,48.3507],[9.9823,48.3477],[9.9912,48.328],[9.9378,48.3109],[9.9253,48.3266],[9.9278,48.3406],[9.9021,48.3432],[9.8779,48.3536],[9.8481,48.353],[9.8489,48.3754],[9.869,48.376],[9.8763,48.3965],[9.9008,48.3958],[9.9267,48.4245],[9.9069,48.4246],[9.9155,48.4419],[9.9404,48.4518],[9.9572,48.4461],[9.982,48.463],[10.0212,48.4647],[10.0343,48.458],[10.0737,48.46],[10.1001,48.4709],[10.1185,48.4704],[10.1343,48.455],[10.1708,48.4568],[10.1896,48.4782],[10.2365,48.4999],[10.2337,48.5054],[10.2307,48.5103],[10.1941,48.5459],[10.1236,48.5591],[10.0972,48.5783],[10.0516,48.5924],[10.0399,48.6064],[9.9643,48.5947],[9.9692,48.6154],[9.9431,48.6319],[9.9242,48.6298],[9.8822,48.604],[9.8713,48.5898],[9.8403,48.5858],[9.8263,48.5641],[9.811,48.5569],[9.7513,48.5636],[9.7179,48.5573],[9.7188,48.5448],[9.6954,48.5401],[9.6775,48.5225],[9.6536,48.521],[9.6323,48.537],[9.6111,48.5411],[9.5858,48.5369]]]},"properties":{"ags":"08425","name":"Alb-Donau-Kreis","typ":"Landkreis"}},
{"type":"Feature","geometry":{"type":"Polygon","coordinates":[[[9.3475,48.2392],[9.3236,48.2248],[9.3106,48.202],[9.3205,48.1896],[9.3041,48.179],[9.3017,48.1668],[9.273,48.1499],[9.2905,48.1379],[9.3174,48.1309],[9.3263,48.1123],[9.3765,48.0943],[9.4125,48.103],[9.4288,48.0871],[9.4765,48.0734],[9.5016,48.0759],[9.5326,48.0619],[9.5372,48.0519],[9.5698,48.0412],[9.6052,48.0025],[9.6236,47.9656],[9.6481,47.9665],[9.664,47.9761],[9.685,47.9673],[9.7477,47.9761],[9.7856,47.956],[9.825,47.9606],[9.8361,47.9526],[9.8605,47.9658],[9.8692,47.9793],[9.9092,47.9842],[9.9255,47.9659],[9.9566,47.9586],[9.9793,47.9676],[10.0067,47.953],[10.037,47.9456],[10.0501,47.952],[10.0667,47.9737],[10.0891,47.981],[10.1059,47.9744],[10.1155,47.9756],[10.1201,48.0043],[10.1322,48.0144],[10.1368,48.0233],[10.1255,48.0327],[10.1412,48.0495],[10.1428,48.0755],[10.1359,48.1078],[10.1177,48.1212],[10.0976,48.1621],[10.0503,48.1425],[10.0352,48.153],[10.0474,48.1653],[10.0446,48.1818],[10.0683,48.1901],[10.036,48.2001],[10.0405,48.2287],[10.0204,48.2309],[10.0114,48.2431],[9.9908,48.2438],[9.9894,48.2624],[9.958,48.2703],[9.9261,48.2687],[9.9096,48.284],[9.8817,48.2937],[9.872,48.2752],[9.847,48.2587],[9.7928,48.2452],[9.795,48.2311],[9.7642,48.2264],[9.7683,48.2158],[9.7419,48.2041],[9.7447,48.176],[9.7149,48.1715],[9.6998,48.1796],[9.6569,48.1681],[9.644,48.1872],[9.6255,48.1979],[9.5946,48.2055],[9.578,48.1932],[9.5455,48.193],[9.5292,48.2057],[9.5273,48.2214],[9.4901,48.2326],[9.4969,48.2131],[9.3866,48.1993],[9.3475,48.2392]]]},"properties":{"ags":"08426","name":"Biberach","typ":"Landkreis"}},
{"type":"Feature","geometry":{"type":"Polygon","coordinates":[[[9.0697,47.8064],[9.1065,47.791],[9.14,47.7677],[9.1532,47.7664],[9.2245,47.7399],[9.2256,47.7274],[9.2422,47.7066],[9.2635,47.6935],[9.3128,47.6728],[9.3546,47.6605],[9.3977,47.6682],[9.4203,47.6653],[9.4637,47.6481],[9.487,47.6513],[9.5146,47.6346],[9.5175,47.6219],[9.5359,47.5968],[9.5621,47.5844],[9.6021,47.5843],[9.6211,47.5835],[9.6433,47.5958],[9.657,47.6121],[9.6783,47.6047],[9.6921,47.6105],[9.683,47.627],[9.7006,47.6351],[9.7312,47.6381],[9.7445,47.6542],[9.729,47.6677],[9.7259,47.6842],[9.6983,47.6878],[9.6678,47.6843],[9.6458,47.702],[9.6208,47.7107],[9.5699,47.7364],[9.5255,47.7304],[9.4928,47.7372],[9.4956,47.7522],[9.4774,47.7639],[9.4425,47.7638],[9.4376,47.7813],[9.459,47.7931],[9.4616,47.8093],[9.4416,47.8105],[9.4305,47.8239],[9.4104,47.821],[9.3715,47.835],[9.3199,47.8672],[9.3027,47.8585],[9.2763,47.8648],[9.2623,47.8822],[9.2446,47.87],[9.2394,47.8522],[9.2184,47.8581],[9.192,47.8405],[9.1284,47.8468],[9.1033,47.8414],[9.0734,47.8603],[9.0659,47.8539],[9.0804,47.8316],[9.0697,47.8064]]]},"properties":{"ags":"08435","name":"Bodenseekreis","typ":"Landkreis"}},
{"type":"Feature","geometry":{"type":"Polygon","coordinates":[[[9.6052,48.0025],[9.5646,47.9972],[9.5629,47.9668],[9.5364,47.9676],[9.52,47.9887],[9.4867,47.9604],[9.4369,47.9572],[9.4238,47.9425],[9.4046,47.9329],[9.4117,47.9225],[9.4013,47.9023],[9.3761,47.8797],[9.3828,47.8645],[9.402,47.8574],[9.4104,47.821],[9.4305,47.8239],[9.4416,47.8105],[9.4616,47.8093],[9.459,47.7931],[9.4376,47.7813],[9.4425,47.7638],[9.4774,47.7639],[9.4956,47.7522],[9.4928,47.7372],[9.5255,47.7304],[9.5699,47.7364],[9.6208,47.7107],[9.6458,47.702],[9.6678,47.6843],[9.6983,47.6878],[9.7259,47.6842],[9.729,47.6677],[9.7445,47.6542],[9.7312,47.6381],[9.7006,47.6351],[9.683,47.627],[9.6921,47.6105],[9.6995,47.6025],[9.7265,47.6067],[9.7469,47.6036],[9.7575,47.616],[9.7954,47.6359],[9.802,47.6508],[9.8276,47.6588],[9.8304,47.6714],[9.8504,47.6785],[9.8742,47.6752],[9.8962,47.6639],[9.9575,47.6525],[10.0044,47.682],[10.032,47.6846],[10.0587,47.6805],[10.0751,47.6583],[10.0768,47.6395],[10.0801,47.6546],[10.0932,47.6645],[10.1305,47.6769],[10.1282,47.6908],[10.1387,47.7039],[10.1211,47.7133],[10.1138,47.7416],[10.1189,47.7612],[10.083,47.7721],[10.067,47.7878],[10.102,47.8011],[10.1321,47.8201],[10.0962,47.8535],[10.0839,47.8562],[10.1049,47.883],[10.1017,47.9054],[10.11,47.9107],[10.1103,47.9378],[10.0914,47.9459],[10.0899,47.969],[10.1059,47.9744],[10.0891,47.981],[10.0667,47.9737],[10.0501,47.952],[10.037,47.9456],[10.0067,47.953],[9.9793,47.9676],[9.9566,47.9586],[9.9255,47.9659],[9.9092,47.9842],[9.8692,47.9793],[9.8605,47.9658],[9.8361,47.9526],[9.825,47.9606],[9.7856,47.956],[9.7477,47.9761],[9.685,47.9673],[9.664,47.9761],[9.6481,47.9665],[9.6236,47.9656],[9.6052,48.0025]]]},"properties":{"ags":"08436","name":"Ravensburg","typ":"Landkreis"}},
{"type":"Feature","geometry":{"type":"Polygon","coordinates":[[[9.0126,47.9369],[9.0515,47.9363],[9.0728,47.9425],[9.0669,47.9152],[9.0865,47.916],[9.1266,47.9009],[9.1458,47.8983],[9.1481,47.878],[9.1313,47.8626],[9.1284,47.8468],[9.192,47.8405],[9.2184,47.8581],[9.2394,47.8522],[9.2446,47.87],[9.2623,47.8822],[9.2763,47.8648],[9.3027,47.8585],[9.3199,47.8672],[9.3715,47.835],[9.4104,47.821],[9.402,47.8574],[9.3828,47.8645],[9.3761,47.8797],[9.4013,47.9023],[9.4117,47.9225],[9.4046,47.9329],[9.4238,47.9425],[9.4369,47.9572],[9.4867,47.9604],[9.52,47.9887],[9.5364,47.9676],[9.5629,47.9668],[9.5646,47.9972],[9.6052,48.0025],[9.5698,48.0412],[9.5372,48.0519],[9.5326,48.0619],[9.5016,48.0759],[9.4765,48.0734],[9.4288,48.0871],[9.4125,48.103],[9.3765,48.0943],[9.3263,48.1123],[9.3174,48.1309],[9.2905,48.1379],[9.273,48.1499],[9.3017,48.1668],[9.3041,48.179],[9.3205,48.1896],[9.3106,48.202],[9.3236,48.2248],[9.3475,48.2392],[9.33,48.2564],[9.3111,48.2589],[9.2756,48.2845],[9.2567,48.2693],[9.2254,48.2667],[9.2133,48.2831],[9.1873,48.2809],[9.1877,48.2728],[9.1099,48.2517],[9.1116,48.2363],[9.127,48.2293],[9.1796,48.2156],[9.1817,48.1775],[9.1664,48.1473],[9.1465,48.1413],[9.1212,48.1446],[9.1128,48.1571],[9.0888,48.1488],[9.0637,48.1515],[9.0325,48.165],[9.0096,48.1595],[8.983,48.1241],[8.9501,48.115],[8.9535,48.1071],[8.9626,48.0912],[8.9794,48.0859],[8.9963,48.0706],[8.986,48.06],[8.9479,48.0563],[8.9344,48.0494],[8.9606,48.0356],[9.0066,48.0251],[9.0131,48.0175],[9.0213,47.9803],[9.021,47.9471],[9.0126,47.9369]]]},"properties":{"ags":"08437","name":"Sigmaringen","typ":"Landkreis"}}
]}