{"type":"FeatureCollection", "features": [
{"type":"Feature","geometry":{"type":"Point","coordinates":[9.1743,48.7744]},"properties":{"ags":"08111","name":"Stuttgart","typ":"Stadtkreis"}},
{"type":"Feature","geometry":{"type":"Point","coordinates":[8.9519,48.6787]},"properties":{"ags":"08115","name":"Böblingen","typ":"Landkreis"}},
{"type":"Feature","geometry":{"type":"Point","coordinates":[9.3726,48.6536]},"properties":{"ags":"08116","name":"Esslingen","typ":"Landkreis"}},
{"type":"Feature","geometry":{"type":"Point","coordinates":[9.7154,48.6605]},"properties":{"ags":"08117","name":"Göppingen","typ":"Landkreis"}},
{"type":"Feature","geometry":{"type":"Point","coordinates":[9.119,48.9489]},"properties":{"ags":"08118","name":"Ludwigsburg","typ":"Landkreis"}},
{"type":"Feature","geometry":{"type":"Point","coordinates":[9.4996,48.8984]},"properties":{"ags":"08119","name":"Rems-Murr-Kreis","typ":"Landkreis"}},
{"type":"Feature","geometry":{"type":"Point","coordinates":[9.188,49.1563]},"properties":{"ags":"08121","name":"Heilbronn","typ":"Stadtkreis"}},
{"type":"Feature","geometry":{"type":"Point","coordinates":[8.9916,49.1299]},"properties":{"ags":"08125","name":"Heilbronn","typ":"Landkreis"}},
{"type":"Feature","geometry":{"type":"Point","coordinates":[9.6145,49.2717]},"properties":{"ags":"08126","name":"Hohenlohekreis","typ":"Landkreis"}},
{"type":"Feature","geometry":{"type":"Point","coordinates":[9.9167,49.1627]},"properties":{"ags":"08127","name":"Schwäbisch Hall","typ":"Landkreis"}},
{"type":"Feature","geometry":{"type":"Point","coordinates":[9.6903,49.5636]},"properties":{"ags":"08128","name":"Main-Tauber-Kreis","typ":"Landkreis"}},
{"type":"Feature","geometry":{"type":"Point","coordinates":[10.166,48.6596]},"properties":{"ags":"08135","name":"Heidenheim","typ":"Landkreis"}},
{"type":"Feature","geometry":{"type":"Point","coordinates":[10.0873,48.8837]},"properties":{"ags":"08136","name":"Ostalbkreis","typ":"Landkreis"}},
{"type":"Feature","geometry":{"type":"Point","coordinates":[8.2419,48.7484]},"properties":{"ags":"08211","name":"Baden-Baden","typ":"Stadtkreis"}},
{"type":"Feature","geometry":{"type":"Point","coordinates":[8.4122,49.0103]},"properties":{"ags":"08212","name":"Karlsruhe","typ":"Stadtkreis"}},
{"type":"Feature","geometry":{"type":"Point","coordinates":[8.6028,49.1266]},"properties":{"ags":"08215","name":"Karlsruhe","typ":"Landkreis"}},
{"type":"Feature","geometry":{"type":"Point","coordinates":[8.2278,48.8936]},"properties":{"ags":"08216","name":"Rastatt","typ":"Landkreis"}},
{"type":"Feature","geometry":{"type":"Point","coordinates":[8.6925,49.4038]},"properties":{"ags":"08221","name":"Heidelberg","typ":"Stadtkreis"}},
{"type":"Feature","geometry":{"type":"Point","coordinates":[8.5007,49.4989]},"properties":{"ags":"08222","name":"Mannheim","typ":"Stadtkreis"}},
{"type":"Feature","geometry":{"type":"Point","coordinates":[9.2313,49.4621]},"properties":{"ags":"08225","name":"Neckar-Odenwald-Kreis","typ":"Landkreis"}},
{"type":"Feature","geometry":{"type":"Point","coordinates":[8.8052,49.2944]},"properties":{"ags":"08226","name":"Rhein-Neckar-Kreis","typ":"Landkreis"}},
{"type":"Feature","geometry":{"type":"Point","coordinates":[8.7127,48.8767]},"properties":{"ags":"08231","name":"Pforzheim","typ":"Stadtkreis"}},
{"type":"Feature","geometry":{"type":"Point","coordinates":[8.636,48.679]},"properties":{"ags":"08235","name":"Calw","typ":"Landkreis"}},
{"type":"Feature","geometry":{"type":"Point","coordinates":[8.8299,48.9609]},"properties":{"ags":"08236","name":"Enzkreis","typ":"Landkreis"}},
{"type":"Feature","geometry":{"type":"Point","coordinates":[8.4521,48.491]},"properties":{"ags":"08237","name":"Freudenstadt","typ":"Landkreis"}},
{"type":"Feature","geometry":{"type":"Point","coordinates":[7.8161,48.0067]},"properties":{"ags":"08311","name":"Freiburg im Breisgau","typ":"Stadtkreis"}},
{"type":"Feature","geometry":{"type":"Point","coordinates":[8.0105,47.9539]},"properties":{"ags":"08315","name":"Breisgau-Hochschwarzwald","typ":"Landkreis"}},
{"type":"Feature","geometry":{"type":"Point","coordinates":[7.8937,48.1421]},"properties":{"ags":"08316","name":"Emmendingen","typ":"Landkreis"}},
{"type":"Feature","geometry":{"type":"Point","coordinates":[8.0165,48.4286]},"properties":{"ags":"08317","name":"Ortenaukreis","typ":"Landkreis"}},
{"type":"Feature","geometry":{"type":"Point","coordinates":[8.552,48.2483]},"properties":{"ags":"08325","name":"Rottweil","typ":"Landkreis"}},
{"type":"Feature","geometry":{"type":"Point","coordinates":[8.4224,48.0279]},"properties":{"ags":"08326","name":"Schwarzwald-Baar-Kreis","typ":"Landkreis"}},
{"type":"Feature","geometry":{"type":"Point","coordinates":[8.7886,48.0279]},"properties":{"ags":"08327","name":"Tuttlingen","typ":"Landkreis"}},
{"type":"Feature","geometry":{"type":"Point","coordinates":[8.909,47.8039]},"properties":{"ags":"08335","name":"Konstanz","typ":"Landkreis"}},
{"type":"Feature","geometry":{"type":"Point","coordinates":[7.7742,47.6896]},"properties":{"ags":"08336","name":"Lörrach","typ":"Landkreis"}},
{"type":"Feature","geometry":{"type":"Point","coordinates":[8.2918,47.7057]},"properties":{"ags":"08337","name":"Waldshut","typ":"Landkreis"}},
{"type":"Feature","geometry":{"type":"Point","coordinates":[9.3647,48.4001]},"properties":{"ags":"08415","name":"Reutlingen","typ":"Landkreis"}},
{"type":"Feature","geometry":{"type":"Point","coordinates":[8.9868,48.4829]},"properties":{"ags":"08416","name":"Tübingen","typ":"Landkreis"}},
{"type":"Feature","geometry":{"type":"Point","coordinates":[8.9384,48.2672]},"properties":{"ags":"08417","name":"Zollernalbkreis","typ":"Landkreis"}},
{"type":"Feature","geometry":{"type":"Point","coordinates":[9.9386,48.3876]},"properties":{"ags":"08421","name":"Ulm","typ":"Stadtkreis"}},
{"type":"Feature","geometry":{"type":"Point","coordinates":[9.7753,48.4532]},"properties":{"ags":"08425","name":"Alb-Donau-Kreis","typ":"Landkreis"}},
{"type":"Feature","geometry":{"type":"Point","coordinates":[9.8519,48.1065]},"properties":{"ags":"08426","name":"Biberach","typ":"Landkreis"}},
{"type":"Feature","geometry":{"type":"Point","coordinates":[9.3658,47.7431]},"properties":{"ags":"08435","name":"Bodenseekreis","typ":"Landkreis"}},
{"type":"Feature","geometry":{"type":"Point","coordinates":[9.7805,47.8226]},"properties":{"ags":"08436","name":"Ravensburg","typ":"Landkreis"}},
{"type":"Feature","geometry":{"type":"Point","coordinates":[9.2361,48.0243]},"properties":{"ags":"08437","name":"Sigmaringen","typ":"Landkreis"}}
]}