{"type":"FeatureCollection", "features": [
{"type":"Feature","geometry":{"type":"MultiPolygon","coordinates":[[[[9.0534,47.7028],[9.0461,47.6925],[9.0694,47.6853],[9.0715,47.6989],[9.0534,47.7028]]],[[[8.7031,47.7146],[8.685,47.7085],[8.6733,47.6956],[8.7172,47.6906],[8.7031,47.7146]]],[[[9.6021,47.5843],[9.6211,47.5835],[9.6433,47.5958],[9.657,47.6121],[9.6783,47.6047],[9.7088,47.6019],[9.7265,47.6067],[9.7469,47.6036],[9.7575,47.616],[9.7954,47.6359],[9.802,47.6508],[9.8276,47.6588],[9.8304,47.6714],[9.8504,47.6785],[9.8742,47.6752],[9.8962,47.6639],[9.9575,47.6525],[10.0044,47.682],[10.032,47.6846],[10.0439,47.6757],[10.0587,47.6805],[10.0801,47.6546],[10.0932,47.6645],[10.1305,47.6769],[10.1282,47.6908],[10.1387,47.7039],[10.1211,47.7133],[10.1138,47.7416],[10.1189,47.7612],[10.083,47.7721],[10.067,47.7878],[10.1337,47.815],[10.0962,47.8535],[10.0839,47.8562],[10.1049,47.883],[10.1017,47.9054],[10.11,47.9107],[10.1057,47.9254],[10.111,47.937],[10.0914,47.9459],[10.0868,47.9616],[10.0952,47.9718],[10.1155,47.9756],[10.1201,48.0043],[10.1368,48.0233],[10.1255,48.0327],[10.1412,48.0495],[10.1428,48.0755],[10.1371,48.1047],[10.1092,48.1345],[10.0848,48.1931],[10.0829,48.2086],[10.0684,48.2229],[10.0628,48.2455],[10.068,48.2541],[10.0651,48.2824],[10.0473,48.2908],[10,48.3461],[9.9914,48.3691],[9.9689,48.3706],[9.9714,48.3799],[10.0138,48.4035],[10.0187,48.4186],[10.0415,48.4296],[10.0281,48.4372],[10.0401,48.4602],[10.0737,48.46],[10.1001,48.4709],[10.1185,48.4704],[10.1277,48.4562],[10.1708,48.4568],[10.1896,48.4782],[10.218,48.4885],[10.2354,48.4885],[10.2365,48.4999],[10.2542,48.5186],[10.2976,48.517],[10.3121,48.523],[10.302,48.5442],[10.3147,48.5557],[10.3104,48.5767],[10.2939,48.5901],[10.2968,48.604],[10.3227,48.609],[10.2979,48.6239],[10.2688,48.6472],[10.2542,48.6648],[10.2729,48.6858],[10.2774,48.7017],[10.304,48.6858],[10.3348,48.6898],[10.3475,48.6774],[10.3522,48.6543],[10.3683,48.664],[10.3895,48.6676],[10.3927,48.6885],[10.4078,48.6983],[10.4265,48.6739],[10.4498,48.6661],[10.4814,48.6814],[10.4824,48.7072],[10.4641,48.7278],[10.4173,48.7482],[10.4273,48.7552],[10.4134,48.7706],[10.4336,48.776],[10.4241,48.8008],[10.4481,48.8131],[10.4486,48.8302],[10.4272,48.8422],[10.4491,48.8492],[10.4539,48.892],[10.4235,48.9032],[10.457,48.9168],[10.4434,48.9454],[10.4301,48.9477],[10.4239,48.9646],[10.3818,48.9992],[10.3543,49.0047],[10.3491,49.0279],[10.3213,49.0264],[10.2968,49.0419],[10.2547,49.0456],[10.2577,49.0703],[10.2455,49.0743],[10.2505,49.0922],[10.2271,49.0903],[10.2049,49.098],[10.2349,49.1221],[10.2553,49.1316],[10.2482,49.1486],[10.2132,49.1627],[10.2038,49.1555],[10.179,49.1823],[10.1598,49.1834],[10.1554,49.193],[10.1367,49.199],[10.1392,49.2162],[10.1274,49.2233],[10.1169,49.2585],[10.1488,49.2694],[10.1321,49.3053],[10.1455,49.3162],[10.1389,49.3268],[10.1204,49.3253],[10.1029,49.3443],[10.1177,49.3672],[10.1077,49.3791],[10.1263,49.3878],[10.1446,49.3837],[10.1615,49.395],[10.1489,49.4034],[10.1329,49.4371],[10.0946,49.4466],[10.0981,49.4565],[10.1165,49.4615],[10.1159,49.4783],[10.1011,49.4939],[10.1172,49.5032],[10.1061,49.5152],[10.084,49.5121],[10.0787,49.5272],[10.0837,49.5433],[10.0376,49.5292],[10.0576,49.5166],[10.0293,49.5037],[10.0223,49.4888],[10.0105,49.4835],[9.9724,49.4858],[9.9551,49.481],[9.9298,49.4842],[9.9136,49.493],[9.9249,49.5087],[9.9173,49.5166],[9.9261,49.5357],[9.9198,49.5626],[9.8993,49.5859],[9.8752,49.5782],[9.8647,49.5675],[9.8591,49.5463],[9.8093,49.5569],[9.8484,49.5775],[9.8418,49.5948],[9.8671,49.6121],[9.8667,49.6231],[9.8543,49.6434],[9.8342,49.6469],[9.8223,49.6664],[9.8325,49.6807],[9.8314,49.7031],[9.7976,49.72],[9.7781,49.7222],[9.7528,49.7102],[9.7498,49.6955],[9.7356,49.6875],[9.6992,49.7191],[9.6777,49.7165],[9.6753,49.6934],[9.6529,49.6874],[9.6256,49.7031],[9.6411,49.7229],[9.6361,49.7323],[9.6451,49.7471],[9.6381,49.755],[9.6508,49.7662],[9.6482,49.7914],[9.6206,49.7835],[9.5589,49.7775],[9.5581,49.7648],[9.5231,49.7603],[9.5118,49.7653],[9.5129,49.7814],[9.5,49.788],[9.4809,49.7865],[9.4685,49.773],[9.4459,49.7725],[9.4239,49.7888],[9.3925,49.7698],[9.3714,49.7781],[9.343,49.7674],[9.3205,49.7686],[9.3142,49.7588],[9.3239,49.7477],[9.3166,49.7348],[9.3401,49.7344],[9.3518,49.7219],[9.3527,49.7072],[9.3828,49.7093],[9.3813,49.726],[9.4184,49.7117],[9.4178,49.6875],[9.3978,49.6711],[9.4138,49.6599],[9.406,49.6451],[9.3829,49.6432],[9.369,49.6555],[9.3374,49.6444],[9.3134,49.6537],[9.2686,49.6318],[9.2846,49.6149],[9.2642,49.6068],[9.2495,49.5846],[9.1945,49.5739],[9.1737,49.5777],[9.1404,49.5779],[9.1215,49.5732],[9.1029,49.5775],[9.1005,49.5606],[9.0744,49.5629],[9.0881,49.5465],[9.1262,49.5214],[9.1067,49.5092],[9.1,49.5258],[9.0719,49.5261],[9.0508,49.5195],[9.0432,49.5019],[9.0162,49.497],[8.986,49.51],[8.9422,49.4855],[8.9312,49.4698],[8.9509,49.4535],[8.9289,49.4483],[8.9233,49.4392],[8.9,49.4347],[8.8953,49.4219],[8.8763,49.4129],[8.8578,49.3967],[8.8375,49.4056],[8.8235,49.3949],[8.8036,49.4035],[8.8065,49.4192],[8.8323,49.4247],[8.8343,49.4503],[8.8268,49.4707],[8.8518,49.4839],[8.8771,49.4668],[8.8995,49.4842],[8.8983,49.5028],[8.8807,49.5058],[8.8456,49.502],[8.832,49.4922],[8.8174,49.5045],[8.8193,49.5208],[8.7965,49.5122],[8.7593,49.5161],[8.7224,49.5311],[8.7103,49.5321],[8.6834,49.573],[8.6834,49.5894],[8.6977,49.6],[8.679,49.6252],[8.5939,49.6097],[8.6034,49.5928],[8.6079,49.5694],[8.6197,49.5423],[8.5912,49.521],[8.5547,49.5215],[8.5317,49.5366],[8.5263,49.548],[8.4941,49.5726],[8.4802,49.5742],[8.4648,49.5891],[8.4408,49.5889],[8.4232,49.5833],[8.4148,49.5546],[8.4257,49.5372],[8.4445,49.4899],[8.4632,49.4727],[8.445,49.4583],[8.4462,49.4463],[8.489,49.4432],[8.5083,49.4346],[8.492,49.397],[8.466,49.3866],[8.4768,49.3751],[8.502,49.3765],[8.4874,49.3496],[8.4585,49.3329],[8.4534,49.3164],[8.4848,49.3037],[8.4886,49.2927],[8.4619,49.2806],[8.4342,49.2584],[8.3995,49.2422],[8.3877,49.2297],[8.405,49.2193],[8.3855,49.1983],[8.3684,49.1675],[8.3727,49.1519],[8.3611,49.1044],[8.3508,49.0877],[8.3258,49.0689],[8.3089,49.048],[8.2992,49.0156],[8.2779,48.9892],[8.2326,48.9663],[8.1961,48.9555],[8.16,48.9158],[8.129,48.8766],[8.1039,48.8167],[8.0891,48.802],[8.0681,48.7899],[8.0449,48.7906],[8.0263,48.7822],[8.0157,48.7609],[7.9736,48.7589],[7.9669,48.7271],[7.8965,48.6676],[7.8835,48.6587],[7.8441,48.6453],[7.8278,48.6167],[7.801,48.5867],[7.8056,48.5613],[7.8066,48.5193],[7.7945,48.5018],[7.7727,48.4933],[7.7634,48.4515],[7.7354,48.4031],[7.7311,48.3881],[7.7357,48.3612],[7.7447,48.3378],[7.7352,48.3184],[7.7039,48.3094],[7.6915,48.2997],[7.6892,48.2796],[7.6664,48.2211],[7.6452,48.2081],[7.6302,48.1846],[7.6024,48.1598],[7.5993,48.1361],[7.5785,48.1228],[7.58,48.1029],[7.5692,48.0792],[7.5735,48.059],[7.5715,48.0309],[7.6038,48.0053],[7.6155,47.9915],[7.6211,47.9687],[7.5873,47.9362],[7.5808,47.9231],[7.5823,47.9022],[7.5555,47.8753],[7.5623,47.8439],[7.5314,47.7865],[7.5335,47.7665],[7.5461,47.7437],[7.5413,47.7215],[7.5114,47.6974],[7.5205,47.6628],[7.5596,47.6374],[7.5744,47.6154],[7.5891,47.6069],[7.5892,47.5897],[7.6193,47.5773],[7.6443,47.5962],[7.6673,47.5919],[7.684,47.574],[7.6761,47.5657],[7.648,47.5603],[7.6497,47.548],[7.6778,47.5338],[7.6972,47.5339],[7.7201,47.5421],[7.7462,47.5439],[7.7898,47.5554],[7.8112,47.5694],[7.8205,47.5872],[7.8391,47.5822],[7.8696,47.5886],[7.8931,47.5867],[7.9112,47.5669],[7.9076,47.5575],[7.9196,47.5477],[7.948,47.5451],[7.96,47.558],[7.9993,47.5564],[8.0231,47.5507],[8.0712,47.5643],[8.0835,47.5583],[8.0995,47.5647],[8.1117,47.5835],[8.1336,47.5837],[8.1513,47.5956],[8.1665,47.5952],[8.2055,47.6207],[8.225,47.6056],[8.2569,47.6152],[8.2972,47.604],[8.2984,47.5886],[8.3214,47.5745],[8.3829,47.566],[8.4004,47.5768],[8.4277,47.5668],[8.4672,47.5731],[8.4571,47.5975],[8.4805,47.6142],[8.5078,47.6171],[8.516,47.6333],[8.5387,47.6309],[8.5689,47.617],[8.5616,47.6011],[8.5823,47.5961],[8.6043,47.6123],[8.5948,47.6419],[8.6079,47.6523],[8.6055,47.6718],[8.5772,47.6622],[8.5638,47.6704],[8.5266,47.6604],[8.5297,47.6454],[8.4761,47.6438],[8.4459,47.6542],[8.4061,47.6752],[8.4208,47.6845],[8.4061,47.6955],[8.4478,47.7222],[8.4505,47.7402],[8.4911,47.7715],[8.5527,47.7843],[8.5633,47.8045],[8.6138,47.8012],[8.6249,47.7772],[8.6196,47.7674],[8.6316,47.7583],[8.6513,47.7719],[8.6457,47.787],[8.6599,47.7914],[8.6812,47.7863],[8.6905,47.7578],[8.7145,47.7654],[8.74,47.7529],[8.7147,47.7381],[8.7178,47.7215],[8.7365,47.7163],[8.7274,47.6927],[8.7557,47.6895],[8.7917,47.6754],[8.7977,47.7029],[8.7694,47.7072],[8.7701,47.7181],[8.7992,47.7281],[8.8194,47.7133],[8.8454,47.7114],[8.8579,47.6989],[8.8601,47.6806],[8.8737,47.6687],[8.8757,47.6561],[8.8952,47.6519],[8.9363,47.6589],[8.9526,47.6685],[8.9984,47.6869],[9.0059,47.6972],[8.9928,47.707],[8.9434,47.7243],[8.9614,47.7364],[9.0058,47.7261],[9.0055,47.7356],[9.1017,47.7018],[9.1268,47.6664],[9.1581,47.6652],[9.1802,47.6555],[9.1813,47.6672],[9.2089,47.6635],[9.2167,47.6685],[9.2106,47.6849],[9.1803,47.7062],[9.1766,47.7298],[9.1493,47.7491],[9.1356,47.7483],[9.1183,47.7586],[9.0692,47.7783],[9.0319,47.8084],[9.0412,47.8167],[9.0611,47.814],[9.0878,47.7965],[9.1065,47.791],[9.14,47.7677],[9.1532,47.7664],[9.2245,47.7399],[9.2256,47.7274],[9.2422,47.7066],[9.2635,47.6935],[9.3128,47.6728],[9.3546,47.6605],[9.3977,47.6682],[9.4203,47.6653],[9.4347,47.6566],[9.4637,47.6481],[9.487,47.6513],[9.5146,47.6346],[9.5175,47.6219],[9.5359,47.5968],[9.5621,47.5844],[9.5918,47.5877],[9.6021,47.5843]]]]},"properties":{"ags":"08","name":"Baden-Württemberg"}}
]}